SAAC 022100Z 09005KT 9999 FEW025 SCT200 31/13 Q1013 =
SAAG 022000Z 14004KT 9999 SCT040 31/12 Q1014 =
SAAJ 022100Z 02010KT 9999 FEW025 29/13 Q1013 =
SAAP 022100Z 36007KT CAVOK 29/14 Q1013 =
SAAR 022100Z 05005KT CAVOK 30/14 Q1013 =
SAAV 021800Z 05007KT CAVOK 31/14 Q1015 =
SABE 022100Z 11010KT CAVOK 26/14 Q1015 =
SACE 022000Z 05008KT 9999 FEW035 28/15 Q1015 =
SACO 022100Z 02008KT 9999 FEW025 27/14 Q1016 =
SADF 022100Z 09011KT 9999 FEW025 27/14 Q1015 =
SADM 022100Z 05005KT 9999 FEW035 29/18 Q1014 =
SADP 022100Z 09010KT 9999 29/13 Q1015 =
SAEZ 022100Z 06008KT 020V110 CAVOK 29/13 Q1015 =
SAME 022100Z 32010KT 9999 SCT040TCU FEW045CB 28/15 Q1010 =
SAMM 022100Z 05004KT 9999 SCT030 SCT045CB 19/14 Q1017 =
SAMR 022100Z 07008KT 9999 SCT025TCU FEW045 29/14 Q1011 =
SANC 022100Z 36025G30KT 9999 SCT040 FEW050TCU 28/15 Q1010 =
SANE 022100Z 23005KT 9999 SCT008 BKN020 23/22 Q1011 =
SANL 022100Z 00000KT CAVOK 29/19 Q1010 =
SANT 022100Z 14002KT 9999 SCT040 BKN058 25/21 Q1013 =
SANU 022100Z 20014KT 9999 FEW040 FEW050CB 30/12 Q1010 =
SAOC 022100Z 05013KT CAVOK 27/13 Q1013 RMK WIND ESTIMATED =
SAOR 022100Z 05012KT 9999 FEW040CB 26/18 Q1013 =
SAOS 022100Z 36004KT CAVOK 29/16 Q1012 =
SAOU 022100Z 11011KT 9999 SCT035 FEW040CB 29/16 Q1012 =
SARC 022100Z 14008KT 9000 FEW035 SCT090 BKN200 28/19 Q1012 =
SARE 022100Z 09005KT 9999 FEW025 BKN060 OVC070 28/20 Q1012 =
SARF 022100Z 09005KT 9999 BKN020 28/22 Q1012 =
SARI 022100Z 09005KT 9999 BKN025 FEW040TCU BKN080 24/22 Q1015 =
SARL 022100Z 14010KT 9999 FEW020 BKN200 28/17 Q1013 =
SARP 022100Z 16006KT 9999 FEW035 SCT100 BKN200 29/18 Q1014 =
SASA 022100Z 14003KT 9999 BKN022 OVC100 21/17 Q1016 =
SASJ 022100Z 00000KT 9999 FEW034 BKN100 23/21 Q1015 =
SATR 022100Z 07005KT 6000 FEW035 BKN100 29/19 Q1012 =
SAVC 022100Z VRB06KT 9999 SCT015 18/16 Q1005 =
SAVE 022100Z 27016KT 9999 FEW040TCU 30/10 Q1008 =
SAVT 022100Z 05022KT CAVOK 37/09 Q1004 =
SAVV 022100Z 34010KT CAVOK 32/11 Q1010 =
SAVY 022100Z 02016KT CAVOK 34/13 Q1005 =
SAWC 022100Z 27018KT 9999 FEW040 22/07 Q1001 =
SAWE 022100Z 02013KT 9999 BKN010 11/09 Q1012 =
SAWG 022100Z 05015G28KT 9999 FEW020 BKN200 15/08 Q1005 =
SAWH 022100Z 00000KT 9999 SCT035 BKN100 14/06 Q1007 =
SAWP 022100Z 23014KT 9999 FEW020 SCT180 28/02 Q1003 =
SAWU 021800Z 05022KT CAVOK 20/09 Q1009 =
SAZA 022100Z 07008KT 9999 07008KT 9999 SCT032 29/11 Q1015 =
SAZB 022100Z 02010KT CAVOK 30/11 Q1013 =
SAZG 022100Z 02011KT CAVOK 29/17 Q1012 =
SAZM 022100Z 07016KT 9999 FEW020 22/18 Q1017 =
SAZN 022100Z 02008KT CAVOK 34/14 Q1007 =
SAZR 022100Z 02013KT CAVOK 29/17 Q1012 =
SAZS 022100Z 29020KT 9999 SCT045 31/12 Q1010 =
SAZT 022100Z 05006KT 9999 SCT025 27/12 Q1016 =
SAZY 022100Z 25015KT 9999 FEW045 32/15 Q1007 =
SUAA 022100Z 12015KT CAVOK 25/17 Q1017 =
SUCA 022100Z 12015KT 9999 FEW030 25/17 Q1014 =
SUDU 022100Z 09005KT 9999 FEW033 30/14 Q1013 =
SULS 022100Z 12012KT CAVOK 25/14 Q1017 =
SUMU 022100Z 12015KT CAVOK 25/16 Q1016 NOSIG =
SUSO 022100Z 13009KT 9999 FEW033 SCT200 31/12 Q1014 =
