SABE 021700Z 0218/0318 08015KT 9999 FEW018 TX29/0318Z TN22/0309Z BECMG 0304/0306 09020KT CAVOK BECMG 0308/0310 02015KT BECMG 0316/0318 09010KT =
SAZB 021700Z 0218/0318 35015KT CAVOK TX33/0318Z TN17/0308Z BECMG 0221/0223 07005KT BECMG 0304/0306 36015KT =
SAZS 021700Z 0218/0318 VRB03KT CAVOK TX32/0218Z TN12/0310Z BECMG 0223/0301 31015KT BECMG 0304/0306 27005KT 9999 SCT020 SCT100 BECMG 0316/0318 27010KT =
SANC 021700Z 0218/0318 36020G30KT 9999 BKN030 TX30/0318Z TN20/0310Z PROB40 TEMPO 0221/0300 18015KT 8000 RA BKN030 FEW050CB =
SAZY 021700Z 0218/0318 VRB03KT CAVOK TX33/0318Z TN13/0310Z BECMG 0304/0306 34015 9999 SCT020 SCT100 BECMG 0316/0318 27010KT =
SAVC 021700Z 0218/0318 14010KT 9999 SCT030 TX25/0219Z TN18/0311Z BECMG 0221/0223 09010KT FEW035TCU BECMG 0300/0302 SHRA SCT025 SCT030 FEW035CB BKN050 BECMG 0305/0307 29025G35KT BECMG 0308/0310 NSW SCT030 BKN090 BECMG 0314/0316 29015KT =
SACO 021700Z 0218/0318 05010KT 9999 SCT020 TX30/0318Z TN16/0310Z =
SARC 021700Z 0218/0318 09005KT FEW025 SCT070 TX33/0318Z TN21/0309Z BECMG 0300/0302 9999 SCT025 BKN060 PROB30 0313/0318 7000 SHRA SCT020 BKN045 FEW050TCU =
SAWC 021700Z 0218/0318 34010KT 9999 SCT030 BKN090 TX22/0218Z TN12/0311Z BECMG 0222/0300 09010KT BECMG 0300/0302 VRB03KT -RA BKN025 BKN050 BECMG 0315/0317 27015KT NSW SCT030 SCT090 =
SAVE 021700Z 0218/0318 05010KT 9999 SCT030 SCT090 TX32/0218Z TN11/0311Z BECMG 0220/0222 27020G30KT BECMG 0309/0311 27015KT =
SAEZ 021700Z 0218/0318 09013KT 9999 SCT040 TX30/0318Z TN20/0309Z BECMG 0303/0306 05010KT CAVOK BECMG 0309/0312 02012KT =
SARF 021700Z 0218/0318 09005KT 9999 SCT035 TX28/0318Z TN22/0309Z PROB30 0220/0224 8000 -RA SCT030 BKN045 BECMG 0304/0306 09005KT 9999 SCT020 BECMG 0308/0310 7000 TSRA SCT020 FEW045CB BKN060 =
SARI 021700Z 0218/0318 05005KT 9999 SCT025 BKN100 TX25/0318Z TN21/0309Z BECMG 0308/0310 14005KT 8000 -TSRA SCT020 BKN045 FEW050CB =
SASJ 021700Z 0218/0318 36005KT 9999 BKN020 BKN030 TX29/0318Z TN18/0310Z PROB30 TEMPO 0221/0300 36005KT 4000 RA BKN005 BKN020 =
SANL 021700Z 0218/0318 18005KT 9999 BKN030 TX30/0318Z TN19/0310Z PROB40 TEMPO 0300/0303 18015KT 5000 RA BKN040 FEW040CB =
SAZM 021700Z 0218/0318 09015KT 9999 SCT020 TX29/0318Z TN15/0310Z BECMG 0221/0223 05015KT 9999 FEW020 TEMPO 0303/0306 36015KT 8000 SCT020 BECMG 0312/0315 05015KT CAVOK =
SAME 021700Z 0218/0318 05005KT 9999 SCT040 TX33/0220Z TN19/0310Z PROB40 TEMPO 0223/0305 14010KT 9999 TSRA BKN035 FEW040CB =
SAZN 021700Z 0218/0318 08010KT CAVOK TX34/0219Z TN23/0309Z BECMG 0304/0306 VRB03KT BECMG 0308/0310 20015KT BECMG 0314/0316 20020KT =
SAAP 021700Z 0218/0318 08010KT CAVOK TX33/0318Z TN18/0309Z BECMG 0222/0223 07015KT BECMG 0306/0309 09005KT 8000 NSC BECMG 0313/0315 02010KT CAVOK =
SARP 021700Z 0218/0318 05005KT 9999 FEW025 BKN100 TX27/0318Z TN22/0309Z BECMG 0222/0200 11005KT 9999 SCT025 BKN070 BECMG 0308/0310 07005KT 8000 -TSRA SCT025 FEW050CB =
SARE 021700Z 0218/0318 09005KT FEW025 SCT070 TX33/0318Z TN21/0309Z BECMG 0300/0302 9999 SCT025 BKN060 PROB30 0313/0318 7000 SHRA SCT020 BKN045 FEW050TCU =
SAWG 021700Z 0218/0318 02020G30KT 9999 BKN030 BKN090 TX16/0218Z TN12/0311Z BECMG 0301/0303 09010KT RA BKN025 OVC050 BECMG 0307/0309 18020KT BECMG 0314/0316 25015KT -RA BKN030 BKN060 =
SAWE 021700Z 0218/0318 02020G30KT 9999 BKN012 BKN060 TX12/0218Z TN08/0311Z BECMG 0303/0305 07010KT BECMG 0308/0310 3000 +RA BKN007 OVC015 BECMG 0314/0316 20015KT 9999 -RA BKN012 OVC030 =
SAAR 021700Z 0218/0318 08010KT 9999 FEW035 TX32/0318Z TN16/0308Z BECMG 0222/0223 07015KT BECMG 0306/0309 09005KT 8000 NSC BECMG 0313/0315 02015KT CAVOK =
SASA 021700Z 0218/0318 02005KT 9999 BKN010 TX24/0218Z TN17/0310Z BECMG 0221/0300 05005KT 9999 BKN020 =
SADF 021700Z 0218/0318 05010KT 9999 FEW025 TX30/0318Z TN22/0309Z BECMG 0220/0222 09020KT BECMG 0307/0309 02015KT BECMG 0311/0313 02010KT 9999 SCT020 =
SANU 021700Z 0218/0318 36005KT 9999 SCT040 TX33/0220Z TN19/0310Z PROB40 TEMPO 0223/0305 14010KT 9999 TSRA BKN035 FEW040CB
SAOU 021700Z 0218/0318 05010KT 9999 SCT035 TX30/0219Z TN18/0309Z PROB40 TEMPO 0222/0305 09010KT 6000 TSRA BKN030 FEW050CB =
SAMR 021700Z 0218/0318 05010KT 9999 SCT035 TX31/0220Z TN16/0310Z PROB40 TEMPO 0221/0304 14005KT 7000 TSRA BKN030 FEW040CB =
SAZR 021700Z 0218/0318 36015KT CAVOK TX33/0318Z TN17/0308Z BECMG 0223/0301 07010KT BECMG 0313/0314 36015KT =
SANE 021700Z 0218/0318 09005KT 9999 BKN035 TX31/0318Z TN20/0310Z =
SAAV 021700Z 0218/0318 11010KT CAVOK TX33/0318Z TN19/0309Z BECMG 0222/0223 07015KT BECMG 0306/0309 09005KT 8000 NSC BECMG 0313/0315 02010KT CAVOK =
SANR 021700Z 0218/0318 11005KT 9999 BKN030 TX28/0318Z TN18/0310Z PROB40 TEMPO 0303/0306 18015KT 5000 RA BKN030 FEW040CB =
SAVT 021700Z 0218/0318 36015KT 9999 SCT035 SCT090 TX38/0219Z TN25/0311Z BECMG 0220/0222 34020G30KT BECMG 0309/0311 20015KT =
SANT 021700Z 0218/0318 18005KT 9999 BKN025 TX30/0318Z TN20/0310Z =
SAWH 021700Z 0218/0318 02020G30KT 9999 -RA BKN030 BKN090 TX12/0218Z TN08/0311Z BECMG 0306/0308 VRB03KT 5000 RA BKN020 OVC050 =
SAVV 021700Z 0218/0318 34020KT 9999 SCT035 TX35/0219Z TN22/0311Z =
SUCA 021720Z 0218/0318 12015KT 9999 SCT020 TX30/0318Z TN17/0310Z BECMG 0302/0304 02005KT CAVOK PROB30 TEMPO 0303/0309 5000 BR =
SULS 021720Z 0218/0318 12015KT 9999 SCT020 TX30/0318Z TN17/0310Z TEMPO 0218/0222 12015G25KT 9999 BKN020 BECMG 0302/0304 02005KT CAVOK PROB30 TEMPO 0303/0309 5000 BR =
SUAA 021720Z 0218/0318 12015KT 9999 SCT020 TX30/0318Z TN17/0310Z BECMG 0302/0304 02005KT CAVOK PROB30 TEMPO 0303/0309 5000 BR =
SUMU 021720Z 0218/0318 12015KT 9999 SCT020 TX30/0318Z TN17/0310Z BECMG 0302/0304 02005KT CAVOK PROB30 TEMPO 0303/0309 5000 BR =
