SBAA 022045Z 05004KT 9999 SCT025 34/22 Q1009 =
SBAE 022100Z 35003KT 9999 FEW045 34/16 Q1012 =
SBAF 022100Z 19012KT 9999 FEW020 30/22 Q1012 =
SBAN 022100Z 32002KT 9999 TS SCT035 FEW040CB 22/19 Q1017 =
SBAQ 022100Z 15002KT 9999 SCT045 33/20 Q1014 =
SBAR 022100Z 09006KT 9999 FEW017 BKN070 28/24 Q1012 =
SBAT 022045Z 03005KT 9999 FEW030TCU ///// Q1009 =
SBAU 022100Z 09002KT 9999 FEW050TCU 32/21 Q1011 =
SBBE 022100Z 08005KT 9999 SCT030 BKN100 29/23 Q1010 =
SBBG 022045Z 11009KT 9999 SCT040 29/14 Q1014 =
SBBH 022100Z 01002KT 9999 VCSH FEW040TCU SCT060 29/16 Q1015 =
SBBI 022100Z 14007KT 9999 FEW008 21/18 Q1019 =
SBBP 022130Z 15010KT 6000 FEW027 FEW033TCU 25/20 Q1015 =
SBBQ 022100Z 08006KT CAVOK 27/16 Q1019 =
SBBR 022100Z 01003KT 9999 VCTS SCT040 FEW045CB SCT100 26/16 Q1016 =
SBBU 022100Z 08004KT 9999 FEW045 FEW050TCU 36/20 Q1012 =
SBBV 022100Z 04012KT 9999 BKN040 FEW045TCU BKN100 33/15 Q1008 =
SBBW 022015Z 06008KT 9999 FEW020 33/21 Q1011 =
SBCA 022100Z 25008KT 9999 SCT010 FEW050TCU BKN100 22/21 Q1017 =
SBCB 022000Z 07007KT CAVOK 31/26 Q1012 =
SBCC 022000Z 09007KT 9999 SCT030 FEW035TCU 29/22 Q1011 =
SBCF 022100Z 06008KT 9999 VCSH FEW040TCU 29/15 Q1015 =
SBCG 022100Z 15002KT 9999 VCSH VCTS SCT035 FEW045CB 24/21 Q1012 RETS =
SBCH 022100Z 26008KT 9999 SCT015 FEW030TCU BKN080 24/21 Q1016 =
SBCI 022030Z 03003KT 9999 TS SCT020 FEW025CB 31/21 Q1009 =
SBCJ 022130Z 12003KT 9999 SCT021 FEW027TCU 25/21 Q1013 =
SBCM 022100Z 06005KT 4000 -RA SCT010 BKN022 OVC070 21/20 Q1017 =
SBCN 021900Z 13005KT 9999 SCT025 FEW030TCU 30/19 Q1013 =
SBCO 022100Z 13011KT 9999 BKN033 26/20 Q1015 =
SBCP 022100Z 06012KT CAVOK 30/24 Q1012 =
SBCR 022100Z 36002KT 9999 FEW022 SCT100 29/24 Q1009 =
SBCT 022100Z 12006KT 9999 FEW007 SCT030 20/18 Q1018 =
SBCY 022100Z 13005KT 9999 SCT020 FEW025TCU BKN100 29/23 Q1009 =
SBCZ 022100Z 32002KT 9999 BKN030 31/22 Q1008 =
SBDN 022100Z 20009KT CAVOK 30/19 Q1011 =
SBDO 022100Z 17008KT 9999 SCT030 28/22 Q1012 =
SBEC 022000Z 07012KT CAVOK ///// Q1012 W///S3 =
SBEG 022135Z 03004KT 5000 BR SCT015 BKN080 23/22 Q1009 RERA =
SBEK 022100Z 13003KT 9999 FEW025TCU 31/25 Q1008 =
SBES 022100Z 24003KT 9999 SCT044 28/21 Q1012 =
SBFI 022100Z 04003KT 9999 SCT025 BKN100 24/23 Q1013 =
SBFL 022100Z 19004KT 7000 VCSH BKN012 BKN025 21/21 Q1016 =
SBFN 022100Z 09006KT 5000 BR BKN010 SCT016 BKN070 25/23 Q1011 =
SBFS 022000Z /////KT CAVOK ///// Q//// =
SBFZ 022100Z 10003KT 9999 SCT019 FEW023TCU BKN080 26/24 Q1010 =
SBGL 022100Z 21013KT 9999 FEW040 30/21 Q1012 =
SBGM 022000Z 21003KT 9999 SCT020TCU BKN030 28/25 Q1008 =
SBGO 022108Z 35008KT 8000 -TSRA BKN035 SCT045CB OVC080 23/19 Q1016 =
SBGP 022100Z 10002KT 9999 SCT020 34/14 Q1013 =
SBGR 022100Z 17007KT 7000 BKN020 BKN100 24/22 Q1017 RETS =
SBGV 022100Z 07003KT CAVOK 32/17 Q//// =
SBGW 022100Z 33003KT 9999 FEW030 34/16 Q1013 =
SBHT 022100Z 10003KT 9999 FEW020 BKN100 28/23 Q1009 =
SBIC 022100Z 30003KT 9999 SCT012 FEW023TCU BKN090 27/25 Q1009 =
SBIH 022100Z 12006KT 9999 FEW013 FEW020TCU SCT100 26/23 Q1009 =
SBIL 022100Z 10009KT 9999 FEW025 29/22 Q1013 =
SBIP 022100Z 02005KT CAVOK 31/19 Q1011 =
SBIT 022000Z 10002KT 9999 SCT030 35/19 Q1010 =
SBIZ 022100Z 10005KT 9999 FEW020 SCT070 31/23 Q1009 =
SBJA 022000Z 09005KT 5000 -DZ BR SCT005 BKN020 OVC070 22/21 Q1016 =
SBJC 022115Z 21004KT 9999 BKN025 FEW030TCU BKN100 29/24 Q1010 =
SBJD 022100Z 15014KT 9999 FEW049TCU 24/16 Q1015 =
SBJF 022100Z 15003KT CAVOK 30/16 Q1017 =
SBJP 022100Z 14010KT 9999 SCT020 27/22 Q1012 =
SBJR 022100Z 20002KT 9999 FEW018 27/25 Q1013 =
SBJU 022100Z 00000KT 9999 BKN020 31/24 Q1014 =
SBJV 022100Z 14004KT 7000 BKN012 BKN020 23/22 Q1015 =
SBKG 021945Z 10011KT 9999 SCT020 28/22 Q1013 =
SBKP 022100Z 17009G19KT 9999 VCSH FEW048 FEW050TCU SCT100 34/15 Q1014 =
SBLB 022000Z 04013KT 9999 FEW015 ///// Q1012 W///S3 =
SBLE 022100Z 08005KT 9999 FEW040 BKN100 27/19 Q1015 =
SBLJ 022000Z 03009KT 9999 BKN005 BKN010 21/19 Q1018 =
SBLO 022100Z 24010KT 9999 SCT025 SCT100 28/20 Q1014 =
SBLP 022045Z 17006KT 9999 FEW030 FEW040TCU 30/20 Q1012 =
SBLS 022100Z 11005KT 9999 VCSH VCTS FEW040 FEW050CB 29/16 Q1015 =
SBMA 022100Z 07005KT 9999 SCT025 FEW030TCU BKN080 29/24 Q1009 =
SBMD 022045Z 06010KT 5000 RA BKN020 ///// Q1010 =
SBME 022100Z 00000KT 9999 SCT025 29/23 Q1012 =
SBMG 022100Z 12011KT 9999 VCSH FEW040 FEW045TCU SCT100 27/22 Q1013 =
SBMK 022100Z 08006KT CAVOK 31/15 Q1013 =
SBML 022100Z 02004KT CAVOK 30/17 Q1018 =
SBMM 022000Z 02016KT 9999 FEW010 27/25 Q1012 W///S3 =
SBMN 022123Z 04005KT 5000 -RA SCT010 BKN080 25/23 Q1009 =
SBMO 022100Z 00000KT 6000 SCT011 BKN018 BKN080 26/25 Q1012 =
SBMQ 022100Z 04007KT 9999 FEW020 OVC090 29/24 Q1010 =
SBMS 022100Z 06005KT 9999 FEW030 27/25 Q1010 =
SBMT 022100Z 13011KT 9999 SCT023 BKN060 25/20 Q1017 RETS =
SBMY 022100Z 00000KT 9999 FEW017 28/25 Q1009 =
SBNF 022100Z 13006KT 9999 SCT015 OVC030 24/23 Q1015 =
SBNT 022100Z 13011KT 9999 FEW023 SCT080 27/22 Q1011 =
SBOI 022000Z 14005KT 9999 FEW015 BKN100 27/24 Q1011 =
SBPA 022100Z 12011KT 9999 BKN040 26/19 Q1015 =
SBPB 022100Z 09007KT 9999 FEW017 BKN100 27/25 Q1010 =
SBPC 021930Z 16003KT 9999 BKN025 30/19 Q1019 =
SBPF 022100Z 15010KT 9999 FEW030 SCT100 22/15 Q1016 =
SBPJ 022100Z 00000KT 9999 VCTS SCT020 FEW033CB 32/20 Q1010 =
SBPK 022100Z 09009KT 9999 SCT040 26/18 Q1016 =
SBPL 022100Z 13003KT 9999 FEW030 SCT080 29/22 Q1012 =
SBPP 022100Z 10008KT 9999 BKN015 25/21 Q1014 =
SBPR 022138Z 00000KT 9999 SCT035 27/18 Q1016 =
SBPS 022100Z 08011KT 9999 FEW020 28/21 Q1013 =
SBPV 022100Z 03006KT 9999 SCT020 FEW023TCU 30/22 Q1007 =
SBQV 022100Z 12012KT CAVOK 25/16 Q1017 =
SBRB 022100Z 35004KT 9999 SCT030 30/23 Q1007 =
SBRD 022030Z 11006KT CAVOK 27/22 Q1011 =
SBRF 022100Z 12007KT 9999 FEW023 28/22 Q1011 =
SBRJ 022100Z 18016KT 9999 FEW007 29/24 Q1012 =
SBRP 022100Z 15003KT CAVOK 34/15 Q1012 =
SBSC 022100Z 21009KT 9999 FEW025 27/23 Q1013 =
SBSG 022100Z 17006KT 9999 FEW025 BKN100 27/23 Q1011 =
SBSJ 022100Z 16013KT 9999 FEW025 FEW035TCU 27/19 Q1016 =
SBSL 022100Z 09008KT 9999 BKN017 BKN080 28/22 Q1010 =
SBSM 022100Z 13004KT 100V160 CAVOK 25/18 Q1015 =
SBSN 022100Z 10005KT 9999 FEW020 SCT100 28/23 Q1009 =
SBSP 022100Z 15014KT 9999 BKN018 24/20 Q1018 RETS =
SBSR 022100Z 12004KT CAVOK 34/14 Q1013 =
SBST 022100Z 18007KT 9999 SCT024 BKN058 28/23 Q1013 =
SBSV 022100Z 11006KT 9999 SCT017 28/22 Q1013 =
SBTA 022100Z 16013KT 9999 FEW030 FEW035TCU 29/22 Q1014 =
SBTB 022000Z 15008KT 9999 FEW015 FEW025TCU SCT100 30/22 Q1012 =
SBTC 022020Z 11003KT 9999 FEW020 SCT070 30/23 Q1013 =
SBTE 022100Z 31004KT 8000 -TSRA SCT011 SCT025 FEW030CB OVC090 24/23 Q1010 =
SBTF 022100Z 13005KT 9999 FEW020 30/25 Q1008 =
SBTG 022100Z 07003KT 9999 FEW025 36/19 Q1010 =
SBTK 022100Z 19004KT 9999 SCT030 FEW033TCU 31/24 Q1008 =
SBTS 022000Z 12006KT 9999 SCT030 SCT100 28/21 Q1010 =
SBTT 022100Z 33002KT 9999 BKN010 ///// Q1010 =
SBTU 022115Z 19002KT 9999 SCT020 SCT025 FEW030TCU 26/24 Q1012 =
SBUA 022100Z 30002KT 8000 SCT015 FEW020TCU SCT100 28/24 Q1008 =
SBUF 021945Z 10006KT 9999 FEW020 30/22 Q1012 =
SBUG 022100Z 06005KT CAVOK 29/15 Q1013 =
SBUL 022100Z 05010KT 9999 VCSH FEW040 FEW045TCU SCT100 26/17 Q1015 =
SBUR 022100Z 16007KT CAVOK 32/16 Q1014 =
SBUY 022100Z 00000KT 9999 SCT020 FEW025TCU BKN100 29/23 Q1007 =
SBVG 021900Z /////KT 9999 FEW045 32/15 Q1017 =
SBVH 022100Z 06005KT 9999 TS SCT025 FEW030CB SCT080 27/22 Q1011 =
SBVT 022100Z 06010KT 9999 FEW007 SCT017 28/24 Q1012 =
SBYS 022100Z 15004KT CAVOK 34/15 Q1013 =
SBZM 022100Z 11002KT 9999 FEW035 34/18 Q1012 =