SBAE 021600Z 0218/0306 06005KT 9999 SCT040 TX34/0218Z TN23/0305Z PROB30 TEMPO 0220/0304 8000 TSRA SCT040 FEW050CB BECMG 0304/0306 16005KT CAVOK RMK PDW =
SBAF 021500Z 0218/0306 19010KT 9999 FEW025TX36/0218Z TN22/0306ZBECMG 0301/0303 25002KT CAVOK RMK PHQ =
SBAN 021845Z 0218/0306 12005KT 9999 SCT040 FEW045TCU TX29/0218Z TN21/0305Z PROB40 0218/0219 TS BKN035 FEW045CBBECMG 0220/0222 SCT040 RMK PDB =
SBAR 021600Z 0218/0306 16008KT 9999 SCT017 TX28/0218Z TN25/0305Z TEMPO 0223/0301 6000 RA RMK PBH =
SBAT 021600Z 0218/0306 03005KT 9999 BKN020 FEW030TCU TX30/0218Z TN23/0306Z PROB30 0219/0222 33008KT TS SCT020 FEW025CB BECMG 0223/0301 00000KT SCT010 RMK PEO =
SBAU 021600Z 0218/0306 08005KT 9999 FEW045 TX35/0218Z TN25/0305Z BECMG 0222/0224 16005KT CAVOK RMK PDW =
SBAX 021600Z 0218/0306 12010KT CAVOKTX30/0218Z TN23/0305ZBECMG 0220/0222 07005KT RMK PGD =
SBBE 021600Z 0218/0318 12008KT 9999 BKN020 FEW025TCU TN24/0305Z TX31/0315Z PROB30 0218/0221 5000 RA BKN008 BECMG 0222/0224 09005KT 9999 SCT020 BECMG 0302/0304 06005KT BECMG 0313/0315 BKN025 RMK PEO =
SBBG 021600Z 0218/0318 12008KT 9999 SCT030 TX30/0218Z TN18/0308Z BECMG 0222/0224 CAVOK BECMG 0312/0314 08008KT 9999 FEW027 RMK PDW =
SBBH 021700Z 0218/0306 07005KT 9999 SCT040 TX33/0219Z TN23/0305Z PROB40 0218/0220 27005KT RMK PDB =
SBBI 021600Z 0218/0306 10005KT 9999 BKN012 TX22/0218Z TN19/0305Z TEMPO 0218/0224 4000 RA BR BKN006 OVC012 BECMG 0300/0302 08004KT BKN006 RMK PDW =
SBBP 021600Z 0218/0306 11010KT 9999 FEW030TX33/0218Z TN23/0305ZPROB30 TEMPO 0218/0221 24010KT 6000 TSRA SCT030 FEW045CBBECMG 0300/0302 03005KT CAVOK RMK PGD =
SBBR 021845Z 0218/0318 07005KT 9999 SCT040 FEW045TCU TX29/0218Z TN17/0308Z BECMG 0220/0222 11005KT FEW035BECMG 0303/0305 19003KT BECMG 0310/0312 05010KT BECMG 0314/0316 BKN040 RMK PDB =
SBBU 021600Z 0218/0306 08005KT 9999 SCT045 TX34/0218Z TN24/0305Z PROB30 TEMPO 0220/0304 8000 TSRA SCT040 FEW050CB BECMG 0304/0306 14005KT CAVOK RMK PDW =
SBBV 021600Z 0218/0318 07015KT 9999 SCT040 TN24/0308Z TX33/0217Z BECMG 0220/0222 SCT040 FEW045TCU BECMG 0223/0301 08010KT FEW040 BECMG 0304/0306 CAVOK BECMG 0313/0315 04018KT 9999 SCT030 RMK PEO =
SBBW 021700Z 0218/0306 10005KT 9999 SCT020 TX35/0218Z TN23/0304Z RMK PDB =
SBCA 021045Z 0212/0224 22005KT 2000 BR BKN003 TN20/0212Z TX26/0218Z FM021300 6000 BKN005 BECMG 0214/0216 16005KT 9999 NSW SCT015 PROB40 TEMPO 0218/0222 8000 SHRA BKN010 FEW030TCU RMK PDW =
SBCB 021500Z 0218/0318 09015KT CAVOKTX34/0218Z TN25/0308Z RMK PHQ =
SBCC 021600Z 0218/0306 06008KT 8000 BKN025 FEW030TCU TX28/0219Z TN20/0306Z PROB30 0218/0221 5000 SHRA BECMG 0222/0224 27005KT 9999 SCT010 RMK PEO =
SBCF 021700Z 0218/0318 09010KT 9999 SCT040 TX31/0219Z TN20/0309Z PROB40 0218/0220 26005KT BECMG 0303/0305 15005KTBECMG 0310/0312 03005KT RMK PDB =
SBCG 021600Z 0218/0318 11008KT 9999 SCT040 FEW050TCU TX31/0218Z TN22/0308Z PROB40 TEMPO 0218/0302 8000 TSRA BKN040 FEW050CB BECMG 0302/0304 08008KT FEW040 BECMG 0312/0314 33008KT SCT035 FEW045TCU RMK PDW =
SBCH 021045Z 0212/0224 12005KT 9999 SCT025 TN23/0212Z TX28/0216Z PROB40 0212/0214 8000 BKN006 PROB40 TEMPO 0218/0223 5000 SHRA SCT008 BKN020 FEW040TCU RMK PDW =
SBCI 021600Z 0218/0306 04008KT 9999 SCT020 TX31/0218Z TN23/0306Z BECMG 0220/0222 SCT020 FEW025TCU BECMG 0223/0301 34005KT FEW015 RMK PEO =
SBCJ 021600Z 0218/0306 12010KT 7000 BKN010 TX28/0219Z TN20/0306Z BECMG 0220/0222 07005KT 9999 SCT015 RMK PEO =
SBCM 021600Z 0218/0306 24005KT 8000 SCT010 BKN020 TX23/0218Z TN21/0305Z PROB40 TEMPO 0218/0306 5000 RA BR BKN010 BKN020 RMK PDW =
SBCN 021700Z 0218/0306 07005KT 9999 SCT040 FEW045TCU TX32/0218Z TN22/0304Z RMK PDB =
SBCO 021600Z 0218/0306 14008KT 9999 SCT035 TX28/0218Z TN20/0305Z BECMG 0300/0302 12004KT FEW040 RMK PDW =
SBCP 021500Z 0218/0306 08015KT 9999 FEW025TX33/0218Z TN26/0301ZBECMG 0222/0224 CAVOK RMK PHQ =
SBCR 021600Z 0218/0318 10005KT 9999 SCT020 TX29/0218Z TN24/0308Z PROB40 TEMPO 0218/0224 8000 VCSH BKN015 FEW025TCU PROB40 0308/0311 5000 BR BKN005 BECMG 0311/0313 03005KT SCT020 RMK PDW =
SBCT 021600Z 0218/0318 09005KT 9999 BKN012 TX22/0218Z TN19/0308Z TEMPO 0218/0224 4000 RA BR BKN006 BKN010 BECMG 0300/0302 BKN006 BECMG 0306/0308 4000 BR OVC005 BECMG 0312/0314 9999 NSW SCT012 BKN020 RMK PDW =
SBCX 021600Z 0218/0306 16005KT 9999 BKN030 TX24/0218Z TN18/0305Z BECMG 0300/0302 03005KT CAVOK RMK PDW =
SBCY 021600Z 0218/0318 32008KT 9999 BKN020 TN21/0309Z TX31/0318Z BECMG 0220/0222 34005KT SCT020 FEW025TCU PROB30 0223/0303 36003KT 5000 RA BKN020 BECMG 0303/0305 07005KT SCT015 BECMG 0312/0314 04008KT SCT020 RMK PEO =
SBCZ 021600Z 0218/0318 04005KT 9999 BKN020 TX34/0218Z TN24/0307Z PROB40 0220/0224 03010KT TS BKN025 FEW030CB BECMG 0303/0305 00000KT BKN008 BECMG 0313/0315 34005KT SCT015 RMK PEO =
SBDB 021600Z 0218/0306 12005KT 9999 SCT030 TX31/0218Z TN22/0305Z PROB40 TEMPO 0218/0222 5000 TSRA SCT005 BKN030 FEW035CB PROB40 0302/0306 5000 BR BKN005 RMK PDW =
SBDN 021600Z 0218/0306 32005KT 9999 SCT045 TX34/0218Z TN23/0305Z PROB40 TEMPO 0220/0303 8000 TSRA SCT045 FEW050CB BECMG 0303/0305 15005KT CAVOK RMK PDW =
SBDO 021600Z 0218/0306 16005KT 9999 BKN025 TX31/0218Z TN21/0305Z PROB40 TEMPO 0218/0222 8000 TSRA BKN020 FEW030CB RMK PDW =
SBEG 021600Z 0218/0318 06008KT 9999 BKN020 TN26/0308Z TX31/0218Z BECMG 0220/0221 BKN020 FEW025TCU PROB40 0219/0221 8000 TSRA BKN015 FEW025CB BECMG 0300/0302 09010KT 9999 SCT010 BECMG 0312/0314 09005KT BKN015 RMK PEO =
SBES 021500Z 0218/0306 07015KT CAVOKTX33/0218Z TN27/0222Z RMK PHQ =
SBFE 021000Z 0212/0224 10006KT 9999 SCT020 TX32/0218Z TN25/0223Z RMK PEI =
SBFI 021600Z 0218/0318 16005KT 9999 BKN020 TX28/0218Z TN22/0308Z BECMG 0218/0220 SCT025 FEW040TCU BECMG 0300/0302 24005KT SCT010 BECMG 0306/0308 4000 BR BKN005 TEMPO 0308/0312 0800 RADZ FG SCT001 BKN004 BECMG 0312/0314 8000 BKN010 RMK PDW =
SBFL 021600Z 0218/0318 16008KT 9999 SCT015 BKN030 TX23/0218Z TN21/0308Z PROB40 TEMPO 0218/0222 5000 RA BR BKN012 BKN025 BECMG 0302/0304 24005KT SCT012 BKN025 BECMG 0312/0314 08008KT BKN030 RMK PDW =
SBFN 021600Z 0218/0306 12010KT 6000 SCT010 SCT016 TX29/0218Z TN26/0302Z PROB30 TEMPO 0221/0302 07008KT 3000 RA BKN010 BKN015 RMK PBH =
SBFZ 021600Z 0218/0318 10012KT 9999 SCT020 TN24/0306Z TX30/0316Z BECMG 0222/0223 11006KT BECMG 0305/0307 19004KT BECMG 0309/0310 14014KT BKN017 FEW025TCU BECMG 0314/0315 11014KT SCT025 RMK PBH =
SBGL 021500Z 0218/0324 14010KT 9999 FEW025TX34/0218Z TN24/0309ZBECMG 0301/0303 32005KT CAVOKBECMG 0304/0306 01005KTBECMG 0312/0314 13010KTBECMG 0315/0317 FEW025 RMK PHQ =
SBGO 021845Z 0218/0318 10005KT 9999 SCT040 FEW045TCU TX31/0218Z TN20/0309Z PROB40 0218/0219 SHRA BECMG 0301/0303 00000KT BECMG 0311/0313 03010KT RMK PDB =
SBGR 021600Z 0218/0324 12005KT 9999 SCT040TX30/0218Z TN20/0307ZPROB40 TEMPO 0218/0223 16010KT 5000 TSRA BR BKN012 FEW030CBBECMG 0300/0302 09005KT 7000PROB30 0306/0310 00000KT 5000 BR BKN005BECMG 0311/0313 12005KT SCT025TEMPO 0318/0324 16010KT 5000 TS BR BKN010 FEW030CB RMK PGD =
SBGV 021600Z 0218/0306 09005KT 9999 SCT035 TX31/0218Z TN23/0305Z RMK PBH =
SBGW 021500Z 0218/0306 33005KT 9999 SCT030TX35/0218Z TN30/0222ZPROB40 0218/0222 17015G25KT 4000 TSRA SCT030 FEW035CB RMK PHQ =
SBHT 021600Z 0218/0306 12005KT 9999 SCT020 TX30/0219Z TN20/0306Z BECMG 0221/0223 00000KT FEW020 FEW025TCU PROB30 0223/0303 12005KT 5000 RA RMK PEO =
SBIH 021600Z 0218/0306 06005KT 8000 SCT020 FEW023TCU TX31/0218Z TN23/0306Z PROB40 0220/0222 5000 RA BECMG 0223/0301 00000KT FEW010 RMK PEO =
SBIL 021600Z 0218/0306 11008KT 9999 FEW023 TX31/0218Z TN25/0305Z BECMG 0222/0224 24004KT RMK PBH =
SBIP 021700Z 0218/0306 02005KT 9999 FEW030 TX33/0218Z TN24/0305Z RMK PDB =
SBIZ 021600Z 0218/0306 09005KT 9999 BKN023 TX35/0219Z TN21/0306Z PROB30 0221/0223 5000 RA SCT015 BECMG 0223/0301 09005KT FEW015 RMK PEO =
SBJD 021600Z 0218/0306 11010KT 9999 SCT040TX31/0218Z TN20/0305ZPROB30 TEMPO 0218/0221 24010KT 6000 TSRA SCT040 FEW045CBBECMG 0222/0224 CAVOK RMK PGD =
SBJF 021500Z 0218/0306 16015KT 9999 SCT020TX32/0218Z TN27/0223ZPROB30 0219/0222 SCT020 FEW025TCUBECMG 0222/0224 25005KT RMK PHQ =
SBJI 021600Z 0218/0306 14010KT 9999 SCT015 TX30/0218Z TN20/0306Z PROB30 0220/0302 8000 TSRA BKN015 FEW020CB BECMG 0302/0304 00000KT SCT010 RMK PEO =
SBJP 021600Z 0218/0318 15011KT 9999 SCT025 TN23/0307Z TX30/0316Z BECMG 0221/0222 19005KT BECMG 0304/0306 23004KT TEMPO 0309/0310 5000 RA BKN015 BECMG 0311/0313 15012KT BKN020 BECMG 0314/0316 SCT025 RMK PBH =
SBJR 021500Z 0218/0306 20005KT 9999 FEW025TX33/0218Z TN24/0300ZBECMG 0223/0301 00000KT RMK PHQ =
SBJU 021600Z 0218/0306 18005KT 9999 SCT020 TX33/0218Z TN24/0305Z PROB30 0220/0222 TS BKN020 FEW020CB BECMG 0223/0224 00000KT RMK PBH =
SBJV 021600Z 0218/0306 16005KT 7000 SCT008 BKN013 TX25/0218Z TN21/0305Z TEMPO 0218/0306 2500 RADZ BR BKN004 OVC010 RMK PDW =
SBKG 021600Z 0218/0306 12012KT 9999 SCT030 TX28/0218Z TN20/0304Z BECMG 0223/0301 11005KT SCT015 BECMG 0303/0305 SCT007 BKN012 RMK PBH =
SBKP 021600Z 0218/0318 11010KT 9999 SCT040TX33/0218Z TN22/0307ZPROB30 TEMPO 0218/0224 24010KT 6000 TSRA SCT040 FEW045CBBECMG 0300/0302 CAVOKBECMG 0312/0314 03005KT SCT030 RMK PGD =
SBLE 021600Z 0218/0306 11005KT 9999 SCT035 TX31/0218Z TN25/0305Z RMK PBH =
SBLO 021600Z 0218/0306 03005KT 9999 SCT025 TX32/0218Z TN22/0305Z PROB40 TEMPO 0218/0223 5000 TSRA BKN020 FEW040CB BECMG 0301/0303 24004KT FEW040 RMK PDW =
SBLP 021600Z 0218/0306 11005KT 9999 SCT030 TX33/0219Z TN24/0305Z RMK PBH =
SBMA 021600Z 0218/0306 08005KT 9999 BKN020 TX32/0219Z TN23/0307Z PROB30 0222/0301 09008KT 5000 TSRA BKN015 FEW025CB BECMG 0300/0302 24005KT CAVOK RMK PEO =
SBME 021500Z 0218/0306 10010KT 9999 FEW025TX33/0218Z TN24/0306ZBECMG 0223/0301 04005KT RMK PHQ =
SBMG 021600Z 0218/0306 32005KT 9999 SCT040 TX32/0218Z TN23/0305Z PROB40 TEMPO 0218/0222 8000 TSRA BKN033 FEW045CB BECMG 0300/0302 08008KT FEW040 RMK PDW =
SBMK 021700Z 0218/0306 09005KT 9999 FEW045 TX33/0219Z TN23/0304Z PROB40 0221/0223 17003KTBECMG 0300/0302 00000KT RMK PDB =
SBML 021600Z 0218/0306 03005KT 9999 SCT040 TX33/0218Z TN23/0305Z PROB30 TEMPO 0220/0304 8000 TSRA BKN040 FEW050CB BECMG 0304/0306 16005KT CAVOK RMK PDW =
SBMN 021600Z 0218/0318 07010KT 9999 SCT020 TN25/0308Z TX32/0218Z BECMG 0220/0221 12010KT SCT020 FEW025TCU PROB40 0219/0221 8000 TSRA BKN015 FEW025CB BECMG 0300/0302 9999 SCT010 BECMG 0312/0314 08010KT BKN015 RMK PEO =
SBMO 021600Z 0218/0318 10010KT 9999 SCT020 TN22/0305Z TX30/0317Z TEMPO 0220/0221 11005KT BECMG 0300/0302 33003KT BECMG 0309/0311 12009KT BKN020 BECMG 0313/0314 SCT020 RMK PBH =
SBMQ 021600Z 0218/0318 06008KT 8000 BKN015 TN25/0308Z TX34/0317Z PROB30 0218/0221 5000 RA BKN010 BECMG 0221/0223 06003KT BKN017 BECMG 0223/0301 35005KT SCT013 PROB30 0308/0310 18005KT 8000 RA BKN010 RMK PEO =
SBMT 021600Z 0218/0306 14008KT 9999 SCT040TX30/0218Z TN21/0305ZPROB40 TEMPO 0218/0224 16010KT 5000 TSRA BR BKN012 FEW030CBRMK PGD =
SBMY 021600Z 0218/0306 06005KT 9999 SCT020 TX34/0218Z TN22/0306Z PROB30 0220/0222 08005KT 5000 TSRA SCT020 FEW025CB BECMG 0223/0301 00000KT SCT010 RMK PEO =
SBNF 021600Z 0218/0318 14008KT 9999 SCT015 BKN030 TX24/0218Z TN22/0308Z PROB40 TEMPO 0218/0224 4000 RA BR BKN010 BKN018 BECMG 0302/0304 26005KT BKN012 BKN020 PROB40 0308/0312 3000 RA BR BKN005 BKN010 BECMG 0312/0314 12005KT SCT012 BKN020 RMK PDW =
SBNT 021600Z 0218/0318 13012KT 9999 SCT020 TN23/0307Z TX30/0316Z BECMG 0222/0223 19005KT TEMPO 0306/0308 5000 RA BKN015 BECMG 0309/0311 13014KT BKN015 FEW025TCU BECMG 0314/0316 SCT030 RMK PBH =
SBOI 021600Z 0218/0306 16005KT 8000 BKN020 TX28/0219Z TN24/0306Z PROB30 0218/0221 4000 RA BKN010 BECMG 0222/0224 9999 SCT015 RMK PEO =
SBPA 021600Z 0218/0318 12008KT 9999 SCT040 TX28/0218Z TN20/0308Z BECMG 0300/0302 12004KT FEW040 PROB30 0306/0312 BKN010 BECMG 0312/0314 12008KT SCT030 RMK PDW =
SBPB 021600Z 0218/0318 08011KT 9999 SCT020 TN27/0311Z TX33/0316Z PROB30 0220/0222 TS SCT020 FEW030CB RMK PBH =
SBPF 021045Z 0212/0224 16005KT 9999 SCT020 BKN040 TN20/0212Z TX28/0218Z PROB40 0212/0214 8000 BKN006 RMK PDW =
SBPJ 021700Z 0218/0306 10010KT 9999 SCT025 FEW030TCU TX34/0218Z TN23/0304Z PROB40 0219/0221 TS SCT030 FEW035CBBECMG 0222/0224 00000KT PROB40 0301/0304 TS FEW035CB RMK PDB =
SBPK 021600Z 0218/0318 12008KT 9999 BKN035 TX28/0218Z TN18/0308Z BECMG 0302/0304 BKN025 RMK PDW =
SBPL 021600Z 0218/0318 15007KT 9999 BKN020 TX32/0219Z TN22/0307Z BECMG BECMG 0218/0220 14010KT 7000 RA BKN020 BECMG 0307/0308 SCT025 BECMG 0309/0311 BKN025 BECMG 0313/0315 SCT025 RMK PBH =
SBPP 021600Z 0218/0318 06008KT 9999 SCT015 TX25/0218Z TN21/0308Z PROB40 TEMPO 0218/0302 3000 TSRA BKN007 FEW030CB BECMG 0302/0304 3000 BR BKN004 PROB40 0308/0311 0500 FG VV001 BECMG 0311/0313 01008KT 9999 NSW SCT015 RMK PDW =
SBPS 021600Z 0218/0318 13008KT 9999 SCT020 TN24/0308Z TX30/0315Z BECMG 0300/0302 26004KT BECMG 0309/0311 16009KT RMK PBH =
SBPV 021600Z 0218/0318 04005KT 9999 BKN015 FEW025TCU TX29/0219Z TN25/0305Z TEMPO 0219/0301 8000 RA BKN010 FEW025TCU BECMG 0302/0304 00000KT SCT005 SCT010 FEW020TCU BECMG 0310/0312 07005KT BECMG 0313/0315 05008KT SCT015 RMK PEO =
SBQV 021600Z 0218/0306 13008KT 9999 SCT020 TX28/0218Z TN18/0304Z BECMG 0122/0123 CAVOK RMK PBH =
SBRB 021600Z 0218/0318 03005KT 8000 BKN015 TN23/0308Z TX33/0316 PROB30 0219/0222 5000 RA BECMG 0223/0301 34005KT 9999 SCT015 BECMG 0304/0306 36005KT BKN005 BECMG 0312/0314 24008KT BKN010 RMK PEO =
SBRF 021600Z 0218/0318 18007KT 9999 BKN020 FEW025TCU TN23/0307Z TX30/0317Z TEMPO 0220/0222 5000 RA BECMG 0223/0301 SCT023 BECMG 0302/0304 22002KT BECMG 0309/0310 13011KT BKN023 BECMG 0313/0315 SCT023 RMK PBH =
SBRJ 021500Z 0218/0306 17010KT 9999 FEW025TX33/0218Z TN25/0306ZBECMG 0301/0303 35005KT RMK PHQ =
SBRP 021600Z 0218/0318 35008KT 9999 SCT040TX35/0218Z TN22/0307ZPROB30 TEMPO 0218/0220 05010KT 6000 SCT040 FEW045TCUBECMG 0221/0223 10005KT CAVOKPROB30 TEMPO 0306/0310 00000KTBECMG 0312/0314 05008KT 9999 SCT040 RMK PGD =
SBSC 021500Z 0218/0306 19015KT 9999 SCT020TX33/0218Z TN23/0306ZBECMG 0300/0302 24005KT FEW020 RMK PHQ =
SBSG 021600Z 0218/0318 17011KT 9999 SCT025 TN22/0306Z TX30/0315Z BECMG 0222/0223 21004KT BECMG 0304/0305 22003KT TEMPO 0306/0308 5000 RA BKN017 BECMG 0309/0311 17010KT BKN015 FEW025TCU BECMG 0314/0316 SCT025 RMK PBH =
SBSJ 021500Z 0218/0318 15015KT 9999 SCT030TX32/0218Z TN23/0309ZPROB40 0218/0222 15015G25KT 4000 TSRA SCT030 FEW035CBBECMG 0223/0302 13005KTBECMG 0306/0308 05003KT 5000 BR SCT010BECMG 0310/0312 8000 NSWBECMG 0315/0317 15005KT 9999 SCT025 FEW030TCU RMK PHQ =
SBSL 021600Z 0218/0318 06010KT 8000 BKN015 FEW025TCU TN26/0306Z TX31/0317Z TEMPO 0218/0222 5000 RA BECMG 0223/0301 08005KT 9999 SCT017 BECMG 0308/0310 10010KT BKN015 BECMG 0313/0315 07015KT SCT017 RMK PEO =
SBSM 021600Z 0218/0306 12008KT 9999 SCT035 TX28/0218Z TN20/0305Z BECMG 0222/0224 12004KT CAVOK RMK PDW =
SBSN 021600Z 0218/0318 06015KT 9999 BKN017 TN25/0308Z TX30/0318 PROB30 0218/0221 07008KT 4000 RA BKN010 BECMG 0223/0301 03005KT 9999 SCT016 BECMG 0309/0311 14005KT SCT017 RMK PEO =
SBSP 021600Z 0218/0318 15005KT 9999 SCT030TX28/0218Z TN22/0307ZPROB40 TEMPO 0218/0224 16010KT 5000 TSRA BR BKN012 FEW030CBTEMPO 0306/0310 VRB03KT 5000 BR SCT008BECMG 0311/0313 12005KT SCT020 RMK PGD =
SBSR 021600Z 0218/0306 11010KT 9999 SCT040TX34/0219Z TN25/0305ZPROB30 TEMPO 0218/0220 04010KT SCT035 FEW045TCUBECMG 0222/0224 CAVOKBECMG 0300/0302 00000KT RMK PGD =
SBST 021500Z 0218/0306 14010KT 9999 SCT035TX32/0218Z TN28/0222ZPROB30 0219/0222 14010G20KT 4000 TSRA FEW030CB SCT040 RMK PHQ =
SBSV 021600Z 0218/0318 09011KT 8000 SCT015 TN26/0306Z TX30/0316Z BECMG 0221/0222 11006KT BECMG 0303/0305 14006KT BECMG 0307/03108 BKN015 FEW025TCU TEMPO 0309/0311 5000 RA BECMG 0312/0314 11011KT SCT015 FEW025TCU BECMG 0316/0317 SCT017 RMK PBH =
SBTA 021500Z 0218/0306 16010KT 9999 SCT030TX34/0218Z TN30/0221ZPROB40 0218/0222 16015G25KT 4000 TSRA SCT030 FEW035CB RMK PHQ =
SBTB 021600Z 0218/0306 05010KT 8000 SCT020 TX28/0218Z TN22/0306Z PROB30 0219/0221 5000 RA BKN012 BECMG 0222/0224 00000KT 9999 SCT015 RMK PEO =
SBTE 021600Z 0218/0306 14005KT 9999 SCT030 TX33/0219Z TN26/0305Z PROB40 TEMPO 0219/0223 16007KT 5000 SHRA SCT015 BKN020 FEW030TCU RMK PBH =
SBTF 021600Z 0218/0306 07010KT 9999 SCT018 TX30/0219Z TN23/0306Z PROB40 0220/0222 12005KT 6000 RA BKN015 BECMG 0223/0301 00000KT SCT010 RMK PEO =
SBTG 021045Z 0212/0224 16005KT 9999 SCT030 TN28/0212Z TX34/0218Z PROB30 TEMPO 0218/0223 TSRA SCT030 FEW040CB RMK PDW =
SBTK 021600Z 0218/0306 06005KT 8000 BKN015 TX32/0219Z TN22/0306Z PROB30 0219/0222 5000 RA BECMG 0223/0301 32005KT BKN008 RMK PEO =
SBTT 021600Z 0218/0318 30008KT 5000 BR BKN010 TN23/0311Z TX32/0318Z PROB30 0222/0301 09008KT 5000 TSRA BKN015 FEW025CB BECMG 0301/0303 00000KT 3000 BR FEW010 BECMG 0313/0315 12010KT SCT007 RMK PEO =
SBTU 021600Z 0218/0306 16005KT 9999 BKN020 TX28/0218Z TN21/0306Z BECMG 0221/0223 09005KT FEW020 FEW025TCU RMK PEO =
SBUA 021600Z 0218/0306 16005KT 5000 RA SCT012 FEW025TCU TX32/0219Z TN22/0306Z BECMG 0219/0221 8000 SCT020 FEW025TCU RMK PEO =
SBUF 021600Z 0218/0306 10008KT 9999 SCT021 TX33/0218Z TN25/0300Z PROB40 0220/0223 6000 TSRA BKN017 FEW025CB RMK PBH =
SBUG 021600Z 0218/0318 11008KT 9999 FEW040 TX31/0218Z TN20/0308Z BECMG 0222/0224 CAVOK BECMG 0312/0314 06008KT 9999 FEW035 RMK PDW =
SBUL 021600Z 0218/0306 04010KT 9999 FEW040TX31/0218Z TN21/0305ZBECMG 0220/0222 04005KT CAVOK RMK PGD =
SBUR 021600Z 0218/0306 35010KT 9999 FEW040TX32/0218Z TN23/0305ZBECMG 0219/0221 CAVOKBECMG 0221/0223 05005KT RMK PGD =
SBVG 021600Z 0218/0306 13010KT 9999 FEW030TX32/0218Z TN23/0305ZBECMG 0221/0223 05005KT CAVOK RMK PGD =
SBVH 021600Z 0218/0306 02010KT 8000 BKN015 FEW027TCU TX27/0219Z TN20/0306Z PROB40 0218/0221 5000 RA BECMG 0222/0224 31005KT 9999 SCT010 BECMG 0303/0305 00000KT BKN006 RMK PEO =
SBVT 021600Z 0218/0318 05012KT 9999 SCT020 TN23/0308Z TX32/0316Z BECMG 0222/0224 36003KT BECMG 0313/0315 05012KT RMK PBH =
SBYS 021600Z 0218/0306 13007KT CAVOKTX35/0218Z TN24/0305ZPROB30 TEMPO 0218/0221 04010KT SCT030 FEW045TCUBECMG 0221/0223 16005KT RMK PGD =
SBZM 021500Z 0218/0306 20010KT 9999 SCT035TX34/0218Z TN22/0301ZPROB30 0219/0222 FEW025TCU SCT035BECMG 0300/0302 00000KT RMK PHQ =