SAAC 050200Z 20003KT CAVOK 09/05 Q1024 =
SAAG 050100Z 00000KT CAVOK 09/04 Q1024 =
SAAJ 050100Z 36003KT CAVOK 10/05 Q1023 =
SAAP 050100Z 18002KT CAVOK 10/03 Q1024 =
SAAR 050100Z 32002KT CAVOK 10/07 Q1024 =
SAAV 050000Z 14005kT CAVOK 15/08 Q1023 =
SABE 050200Z 32006KT CAVOK 14/06 Q1024 =
SACO 050200Z 36006KT CAVOK 14/03 Q1027 =
SADF 050100Z 32003KT CAVOK 13/08 Q1023 =
SADM 050100Z 00000KT CAVOK 13/07 Q1023 =
SAEZ 050100Z 00000KT CAVOK 12/02 Q1023 =
SAME 050200Z 00000KT CAVOK 15/02 Q1023 =
SAMM 050100Z 27003KT CAVOK 10/00 Q1026 =
SAMR 050100Z 18002KT 9999 NSC 10/M01 Q1024 =
SANC 050100Z 05009KT 9999 HZ NSC 20/08 Q1021 =
SANE 050100Z 09003KT CAVOK 22/08 Q1021 =
SANL 050100Z 18004KT CAVOK 21/10 Q1021 =
SANT 050200Z 00000KT 3000 FU NSC 18/12 Q1023 =
SANU 050100Z 20009KT 9999 SKC 15/01 Q1023 =
SAOC 050100Z 36002KT CAVOK 11/03 Q1023 RMK WIND ESTIMATED =
SAOR 050100Z 09003KT CAVOK 09/02 Q1024 =
SAOS 050000Z 00000KT CAVOK 15/05 Q1021 =
SAOU 050100Z 09013KT CAVOK 17/M02 Q1023 =
SARC 050100Z 12005KT 9000 NSC 14/09 Q1021 =
SARE 050200Z 23002KT CAVOK 11/09 Q1022 =
SARF 050100Z 18004KT CAVOK 15/11 Q1021 =
SARI 050100Z 20004KT CAVOK 15/13 Q1020 =
SARL 050100Z 18005KT CAVOK 13/09 Q1022 =
SARP 050200Z 16007KT CAVOK 15/10 Q1021 =
SASA 050100Z 02004KT CAVOK 16/09 Q1024 =
SASJ 050100Z 00000KT 9999 SCT035 OVC100 18/10 Q1023 =
SATR 050100Z 00000KT 8000 NSC 12/09 Q1022 =
SAVC 050100Z 32008KT CAVOK 17/02 Q1014 =
SAVE 050100Z 36005KT CAVOK 07/01 Q1020 =
SAVT 050100Z 36014KT CAVOK 13/00 Q1019 =
SAVV 050100Z 23002KT CAVOK 06/04 Q1023 =
SAVY 050100Z 36010KT CAVOK 10/02 Q1020 =
SAWC 050100Z 27025G32KT 9999 FEW040 13/M06 Q1003 =
SAWE 050100Z 29027KT CAVOK 07/03 Q0991 =
SAWG 050100Z 27016KT CAVOK 11/M04 Q1000 =
SAWH 050200Z 25015KT 9999 FEW040 07/03 Q0985 =
SAWP 050000Z 27012KT CAVOK 10/03 Q1015 =
SAWU 050000Z 27022KT CAVOK 13/02 Q1005 =
SAZB 050200Z 05007KT CAVOK 05/01 Q1024 =
SAZG 050100Z 00000KT CAVOK 11/M02 Q1022 =
SAZM 050100Z 23003KT 6000 FEW015 07/05 Q1024 =
SAZN 050100Z 00000KT CAVOK 09/01 Q1023 =
SAZR 050100Z 14008KT CAVOK 11/M03 Q1023 =
SAZS 050200Z 00000KT CAVOK 01/M03 Q1022 =
SAZT 050100Z 23005KT CAVOK 04/01 Q1024 =
SAZY 042300Z 00000KT CAVOK 11/05 Q1020 =
SUAA 042000Z 30005KT CAVOK 16/04 Q1023 =
SUCA 042200Z 02006KT CAVOK 14/04 Q1020 =
SUDU 042100Z 17004KT 9999 FEW030 16/03 Q1021 =
SULS 050100Z 02007KT CAVOK 09/05 Q1024 =
SUMU 050200Z 03005KT CAVOK 10/04 1023 NOSIG =
SUSO 042200Z 14005KT CAVOK 14/04 Q1023 =
SBAE 050200Z 16012KT CAVOK 17/13 Q1018 =
SBAF 050200Z 28003KT 9000 -RA BKN017 OVC080 19/17 Q1019 =
SBAN 050200Z 20003KT CAVOK 23/05 Q1020 =
SBAQ 050200Z 15010KT CAVOK 20/17 Q1019 =
SBAR 050200Z 10007KT 9999 SCT013 25/23 Q1017 =
SBBE 050200Z 07006KT CAVOK 25/23 Q1014 =
SBBR 050200Z 20004KT CAVOK 19/10 Q1020 =
SBBU 050200Z 14008KT CAVOK 17/14 Q1018 =
SBBV 050200Z 16002KT CAVOK 28/23 Q1013 =
SBCA 050200Z 20014KT CAVOK 14/10 Q1021 =
SBCF 050200Z 13010KT CAVOK 24/13 Q1018 =
SBCG 050200Z 15009KT CAVOK 23/18 Q1017 =
SBCH 050200Z 18004KT 8000 FEW002 SCT015 13/11 Q1020 =
SBCM 050200Z 07003KT 9999 SCT015 BKN070 15/13 Q1023 =
SBCO 050200Z 11005KT 9999 FEW045 14/13 Q1022 =
SBCY 050200Z 19005KT CAVOK 29/19 Q1014 =
SBDN 050200Z 13010KT CAVOK 21/16 Q1016 =
SBDO 050200Z 16004KT CAVOK 20/12 Q1018 =
SBEG 050200Z 00000KT CAVOK 25/23 Q1013 =
SBFI 050200Z 00000KT CAVOK 14/11 Q1019 =
SBFL 050200Z 10003KT 9999 BKN013 16/15 Q1023 =
SBFZ 050200Z 10010KT 9999 BKN018 26/21 Q1016 =
SBGO 050200Z 28003KT CAVOK 23/12 Q1017 =
SBGR 050200Z 14003KT 7000 OVC009 15/14 Q1022 =
SBHT 050200Z 00000KT 9999 FEW020 24/24 Q1013 =
SBIH 050200Z 00000KT CAVOK 29/23 Q1012 =
SBIZ 050200Z 03003KT CAVOK 28/22 Q1013 =
SBJI 050200Z 20002KT CAVOK 26/21 Q1014 =
SBJV 050200Z 14004KT 3000 -RA BR BKN004 BKN030 17/17 Q1022 RERA =
SBKP 050200Z 14012KT 9000 NSC 16/13 Q1020 =
SBLO 050200Z 13005KT CAVOK 19/16 Q1019 =
SBMA 050200Z 35004KT CAVOK 28/23 Q1013 =
SBME 050200Z 23004KT 9999 SCT020 OVC080 21/18 Q1018 =
SBMG 050200Z 11005KT CAVOK 20/17 Q1017 =
SBMK 050200Z VRB02KT CAVOK 25/05 Q1016 =
SBMN 050200Z 34003KT CAVOK 28/22 Q1013 =
SBMO 050200Z 05001KT 9999 SCT020 23/22 Q1018 =
SBMQ 050200Z 03004KT 9999 SCT017 29/25 Q1014 =
SBMT 050200Z 08007KT 8000 BKN013 OVC025 16/13 Q1021 =
SBNF 050200Z 19003KT 9999 FEW008 SCT040 BKN060 16/15 Q1022 =
SBNT 050200Z 11009KT 9999 BKN018 25/21 Q1017 =
SBPA 050200Z 11008KT 9999 FEW042 SCT080 15/11 Q1022 =
SBPJ 050200Z 00000KT 8000 NSC 27/14 Q1013 =
SBPK 050200Z 18004KT 9999 OVC042 13/13 Q1024 =
SBPS 050200Z 01005KT CAVOK 22/20 Q1015 =
SBPV 050200Z 00000KT 8000 NSC 25/21 Q1012 =
SBQV 050200Z 06008KT CAVOK 21/10 Q1021 =
SBRF 050200Z 09005KT 9999 BKN018 26/22 Q1017 =
SBSC 050200Z 22007KT 9999 -RA BKN0012 OVC040 19/17 Q1019 =
SBSG 050200Z 15010KT 9999 BKN020 25/22 Q1017 =
SBSJ 050200Z 20003KT 9999 BKN020 18/17 Q1022 =
SBSL 050200Z 04010KT CAVOK 26/21 Q1015 =
SBSM 050200Z 11007KT 9999 FEW014 14/12 Q1022 =
SBSP 050200Z 12005KT 4000 BR SCT006 OVC009 15/13 Q1022 =
SBSR 050200Z 17008KT CAVOK 23/15 Q1018 =
SBSV 050200Z 06007KT 9999 SCT020 24/21 Q1017 =
SBTA 050200Z 24004KT 220V280 9999 FEW008 OVC028 17/15 Q1020 =
SBVH 050200Z 22002KT CAVOK 24/22 Q1017 =
SBVT 050200Z 20008KT 8000 FEW012 SCT018 OVC025 22/19 Q1017 =
SBZM 050200Z 23004KT CAVOK 21/17 Q1019 =SAAC 050200Z 20003KT CAVOK 09/05 Q1024 =
SAAG 050100Z 00000KT CAVOK 09/04 Q1024 =
SAAJ 050100Z 36003KT CAVOK 10/05 Q1023 =
SAAP 050100Z 18002KT CAVOK 10/03 Q1024 =
SAAR 050100Z 32002KT CAVOK 10/07 Q1024 =
SAAV 050000Z 14005kT CAVOK 15/08 Q1023 =
SABE 050200Z 32006KT CAVOK 14/06 Q1024 =
SACO 050200Z 36006KT CAVOK 14/03 Q1027 =
SADF 050100Z 32003KT CAVOK 13/08 Q1023 =
SADM 050100Z 00000KT CAVOK 13/07 Q1023 =
SAEZ 050100Z 00000KT CAVOK 12/02 Q1023 =
SAME 050200Z 00000KT CAVOK 15/02 Q1023 =
SAMM 050100Z 27003KT CAVOK 10/00 Q1026 =
SAMR 050100Z 18002KT 9999 NSC 10/M01 Q1024 =
SANC 050100Z 05009KT 9999 HZ NSC 20/08 Q1021 =
SANE 050100Z 09003KT CAVOK 22/08 Q1021 =
SANL 050100Z 18004KT CAVOK 21/10 Q1021 =
SANT 050200Z 00000KT 3000 FU NSC 18/12 Q1023 =
SANU 050100Z 20009KT 9999 SKC 15/01 Q1023 =
SAOC 050100Z 36002KT CAVOK 11/03 Q1023 RMK WIND ESTIMATED =
SAOR 050100Z 09003KT CAVOK 09/02 Q1024 =
SAOS 050000Z 00000KT CAVOK 15/05 Q1021 =
SAOU 050100Z 09013KT CAVOK 17/M02 Q1023 =
SARC 050100Z 12005KT 9000 NSC 14/09 Q1021 =
SARE 050200Z 23002KT CAVOK 11/09 Q1022 =
SARF 050100Z 18004KT CAVOK 15/11 Q1021 =
SARI 050100Z 20004KT CAVOK 15/13 Q1020 =
SARL 050100Z 18005KT CAVOK 13/09 Q1022 =
SARP 050200Z 16007KT CAVOK 15/10 Q1021 =
SASA 050100Z 02004KT CAVOK 16/09 Q1024 =
SASJ 050100Z 00000KT 9999 SCT035 OVC100 18/10 Q1023 =
SATR 050100Z 00000KT 8000 NSC 12/09 Q1022 =
SAVC 050100Z 32008KT CAVOK 17/02 Q1014 =
SAVE 050100Z 36005KT CAVOK 07/01 Q1020 =
SAVT 050100Z 36014KT CAVOK 13/00 Q1019 =
SAVV 050100Z 23002KT CAVOK 06/04 Q1023 =
SAVY 050100Z 36010KT CAVOK 10/02 Q1020 =
SAWC 050100Z 27025G32KT 9999 FEW040 13/M06 Q1003 =
SAWE 050100Z 29027KT CAVOK 07/03 Q0991 =
SAWG 050100Z 27016KT CAVOK 11/M04 Q1000 =
SAWH 050200Z 25015KT 9999 FEW040 07/03 Q0985 =
SAWP 050000Z 27012KT CAVOK 10/03 Q1015 =
SAWU 050000Z 27022KT CAVOK 13/02 Q1005 =
SAZB 050200Z 05007KT CAVOK 05/01 Q1024 =
SAZG 050100Z 00000KT CAVOK 11/M02 Q1022 =
SAZM 050100Z 23003KT 6000 FEW015 07/05 Q1024 =
SAZN 050100Z 00000KT CAVOK 09/01 Q1023 =
SAZR 050100Z 14008KT CAVOK 11/M03 Q1023 =
SAZS 050200Z 00000KT CAVOK 01/M03 Q1022 =
SAZT 050100Z 23005KT CAVOK 04/01 Q1024 =
SAZY 042300Z 00000KT CAVOK 11/05 Q1020 =
SUAA 042000Z 30005KT CAVOK 16/04 Q1023 =
SUCA 042200Z 02006KT CAVOK 14/04 Q1020 =
SUDU 042100Z 17004KT 9999 FEW030 16/03 Q1021 =
SULS 050100Z 02007KT CAVOK 09/05 Q1024 =
SUMU 050200Z 03005KT CAVOK 10/04 1023 NOSIG =
SUSO 042200Z 14005KT CAVOK 14/04 Q1023 =
SBAE 050200Z 16012KT CAVOK 17/13 Q1018 =
SBAF 050200Z 28003KT 9000 -RA BKN017 OVC080 19/17 Q1019 =
SBAN 050200Z 20003KT CAVOK 23/05 Q1020 =
SBAQ 050200Z 15010KT CAVOK 20/17 Q1019 =
SBAR 050200Z 10007KT 9999 SCT013 25/23 Q1017 =
SBBE 050200Z 07006KT CAVOK 25/23 Q1014 =
SBBR 050200Z 20004KT CAVOK 19/10 Q1020 =
SBBU 050200Z 14008KT CAVOK 17/14 Q1018 =
SBBV 050200Z 16002KT CAVOK 28/23 Q1013 =
SBCA 050200Z 20014KT CAVOK 14/10 Q1021 =
SBCF 050200Z 13010KT CAVOK 24/13 Q1018 =
SBCG 050200Z 15009KT CAVOK 23/18 Q1017 =
SBCH 050200Z 18004KT 8000 FEW002 SCT015 13/11 Q1020 =
SBCM 050200Z 07003KT 9999 SCT015 BKN070 15/13 Q1023 =
SBCO 050200Z 11005KT 9999 FEW045 14/13 Q1022 =
SBCY 050200Z 19005KT CAVOK 29/19 Q1014 =
SBDN 050200Z 13010KT CAVOK 21/16 Q1016 =
SBDO 050200Z 16004KT CAVOK 20/12 Q1018 =
SBEG 050200Z 00000KT CAVOK 25/23 Q1013 =
SBFI 050200Z 00000KT CAVOK 14/11 Q1019 =
SBFL 050200Z 10003KT 9999 BKN013 16/15 Q1023 =
SBFZ 050200Z 10010KT 9999 BKN018 26/21 Q1016 =
SBGO 050200Z 28003KT CAVOK 23/12 Q1017 =
SBGR 050200Z 14003KT 7000 OVC009 15/14 Q1022 =
SBHT 050200Z 00000KT 9999 FEW020 24/24 Q1013 =
SBIH 050200Z 00000KT CAVOK 29/23 Q1012 =
SBIZ 050200Z 03003KT CAVOK 28/22 Q1013 =
SBJI 050200Z 20002KT CAVOK 26/21 Q1014 =
SBJV 050200Z 14004KT 3000 -RA BR BKN004 BKN030 17/17 Q1022 RERA =
SBKP 050200Z 14012KT 9000 NSC 16/13 Q1020 =
SBLO 050200Z 13005KT CAVOK 19/16 Q1019 =
SBMA 050200Z 35004KT CAVOK 28/23 Q1013 =
SBME 050200Z 23004KT 9999 SCT020 OVC080 21/18 Q1018 =
SBMG 050200Z 11005KT CAVOK 20/17 Q1017 =
SBMK 050200Z VRB02KT CAVOK 25/05 Q1016 =
SBMN 050200Z 34003KT CAVOK 28/22 Q1013 =
SBMO 050200Z 05001KT 9999 SCT020 23/22 Q1018 =
SBMQ 050200Z 03004KT 9999 SCT017 29/25 Q1014 =
SBMT 050200Z 08007KT 8000 BKN013 OVC025 16/13 Q1021 =
SBNF 050200Z 19003KT 9999 FEW008 SCT040 BKN060 16/15 Q1022 =
SBNT 050200Z 11009KT 9999 BKN018 25/21 Q1017 =
SBPA 050200Z 11008KT 9999 FEW042 SCT080 15/11 Q1022 =
SBPJ 050200Z 00000KT 8000 NSC 27/14 Q1013 =
SBPK 050200Z 18004KT 9999 OVC042 13/13 Q1024 =
SBPS 050200Z 01005KT CAVOK 22/20 Q1015 =
SBPV 050200Z 00000KT 8000 NSC 25/21 Q1012 =
SBQV 050200Z 06008KT CAVOK 21/10 Q1021 =
SBRF 050200Z 09005KT 9999 BKN018 26/22 Q1017 =
SBSC 050200Z 22007KT 9999 -RA BKN0012 OVC040 19/17 Q1019 =
SBSG 050200Z 15010KT 9999 BKN020 25/22 Q1017 =
SBSJ 050200Z 20003KT 9999 BKN020 18/17 Q1022 =
SBSL 050200Z 04010KT CAVOK 26/21 Q1015 =
SBSM 050200Z 11007KT 9999 FEW014 14/12 Q1022 =
SBSP 050200Z 12005KT 4000 BR SCT006 OVC009 15/13 Q1022 =
SBSR 050200Z 17008KT CAVOK 23/15 Q1018 =
SBSV 050200Z 06007KT 9999 SCT020 24/21 Q1017 =
SBTA 050200Z 24004KT 220V280 9999 FEW008 OVC028 17/15 Q1020 =
SBVH 050200Z 22002KT CAVOK 24/22 Q1017 =
SBVT 050200Z 20008KT 8000 FEW012 SCT018 OVC025 22/19 Q1017 =
SBZM 050200Z 23004KT CAVOK 21/17 Q1019 =