SABE 042300Z 0500/0524 36005KT CAVOK TX20/0518Z TN08/0510Z TEMPO 0502/0505 VRB03KT PROB30 TEMPO 0509/0511 5000 BR NSC BECMG 0518/0520 09015KT =
SAZB 042300Z 0500/0524 07010KT CAVOK TX20/0518Z TN06/0510Z BECMG 0508/0510 36010KT =
SAZS 042300Z 0500/0524 00000KT CAVOK TX15/0519Z TNM01/0512Z BECMG 0513/0514 34005KT =
SANC 042300Z 0500/0524 02010G20KT SCT040 TX25/0518Z TN11/0510Z BECMG 0504/0508 VRB03KT 9999 FEW030 BECMG 0514/0517 02020G30KT CAVOK =
SAZY 042300Z 0500/0524 00000KT CAVOK TX16/0519Z TNM01/0512Z =
SAVC 042300Z 0500/0524 29016KT CAVOK TX21/0519Z TN07/0512Z =
SACO 042300Z 0500/0524 07005KT CAVOK TX23/0518Z TN05/0510Z PROB30 TEMPO 0508/0511 VRB02KT 4000 BR NSC BECMG 0513/0517 02010G20KT =
SARC 042300Z 0500/0524 16005KT CAVOK TX24/0518Z TN09/0509Z BECMG 0506/0508 5000 BR NSC BECMG 0512/0514 09005KT 8000 NSC =
SAWC 042300Z 0500/0524 27025G38KT 9999 FEW040 SCT100 TX16/0519Z TN05/0512Z =
SAVE 042300Z 0500/0524 05002KT CAVOK TX15/0519Z TN02/0512Z =
SAEZ 042300Z 0500/0524 VRB03KT CAVOK TX21/0518Z TN06/0510Z TEMPO 0506/0512 3000 MIFG BR NSC BECMG 0513/0516 36008KT 9999 SCT040 BECMG 0521/0524 04008KT =
SARF 042300Z 0500/0524 14010KT CAVOK TX26/0518Z TN11/0509Z =
SARI 042300Z 0500/0524 18005KT CAVOK TX24/0518Z TN10/0509Z BECMG 0506/0508 5000 BR NSC BECMG 0512/0514 11005KT CAVOK =
SASJ 042300Z 0500/0524 09005KT CAVOK TX24/0518Z TN08/0510Z PROB40 TEMPO 0509/0512 4000 BKN020 =
SANL 042300Z 0500/0524 18005KT SCT045 TX25/0518Z TN10/0510Z =
SAZM 042300Z 0500/0524 23005KT 5000 BR SCT008 TX17/0518Z TN02/0510Z TEMPO 0508/0511 3000 BR BKN003 BECMG 0513/0515 05005KT CAVOK =
SAME 042300Z 0500/0524 05005KT 9999 FEW040 TN07/0511Z TX24/0520Z BECMG 0515/0517 02010KT =
SAZN 042300Z 0500/0524 VRB03KT CAVOK TX24/0519Z TN05/0512Z BECMG 0514/0516 36015KT =
SAAP 042300Z 0500/0524 VRB03KT CAVOK TX21/0518Z TN08/0510Z PROB40 TEMPO 0508/0511 4000 BR NSC BECMG 0518/0520 07010KT =
SARP 042300Z 0500/0524 16005KT CAVOK TX24/0518Z TN09/0509Z BECMG 0506/0508 5000 BR NSC BECMG 0512/0514 09005KT CAVOK =
SARE 042300Z 0500/0524 16005KT CAVOK TX24/0518Z TN09/0509Z BECMG 0506/0508 5000 BR NSC BECMG 0512/0514 09005KT 8000 NSC =
SAWG 042300Z 0500/0524 25025G38KT 9999 FEW030 FEW090 TX17/0519Z TN05/0512Z =
SAWE 042300Z 0500/0524 27038G49KT 9999 FEW020 TX15/0519Z TN04/0512Z BECMG 0506/0508 29020G30KT 8000 -RA SCT020 SCT090 =
SAAR 042300Z 0500/0524 VRB03KT CAVOK TX20/0518Z TN04/0510Z PROB30 TEMPO 0508/0511 5000 BR NSC BECMG 0520/0522 07010KT =
SASA 042300Z 0500/0524 VRB02KT 9999 SCT020 TX23/0518Z TN09/0510Z PROB40 TEMPO 0509/0512 3000 BR BKN010 =
SADF 042300Z 0500/0524 VRB03KT CAVOK TX21/0510Z TN08/0509Z BECMG 0505/0507 32010KT PROB30 TEMPO 0508/0511 5000 BR NSC BECMG 0518/0520 09010KT =
SANU 042300Z 0500/0524 14010KT CAVOK TN06/0511Z TX26/0520Z BECMG 0515/0517 05010KT =
SAOU 042300Z 0500/0524 11010KT 9999 FEW030 TN11/0509Z TX25/0519Z BECMG 0509/0511 36010KT =
SAMR 042300Z 0500/0524 14005KT CAVOK TN04/0511Z TX23/0520Z BECMG 0515/0517 36010KT =
SAZR 042300Z 0500/0524 16005KT CAVOK TX24/0519Z TN06/0510Z BECMG 0503/0505 07005KT BECMG 0513/0515 36010KT =
SANE 042300Z 0500/0524 09005KT CAVOK TX23/0518Z TN10/0511Z TEMPO 0510/0512 5000 BR =
SAAV 042300Z 0500/0524 00000KT CAVOK TX22/0518Z TN08/0510Z PRB40 TEMPO 0508/0512 VRB03KT 2000 BR NSC BECMG 0513/0514 05005KT CAVOK =
SANR 042300Z 0500/0524 23005KT 9999 BKN035 TX25/0518Z TN12/0510Z PROB30 TEMPO 0508/0512 VRB02KT 4000 BR SCT020 =
SAVT 042300Z 0500/0524 27010KT CAVOK TX19/0519Z TN05/0512Z =
SANT 042300Z 0500/0524 18005KT 2000 FU NSC TX25/0518Z TN12/0510Z PROB30 TEMPO 0508/0512 VRB02KT 1000 BR FU FEW020 =
SAWH 042300Z 0500/0524 23020G38KT 9999 VCSH SCT040 TX12/0519Z TN01/0512Z =
SAVV 042300Z 0500/0524 14006KT CAVOK TX20/0519Z TN05/0512Z =
SUCA 042315Z 0500/0524 34005KT CAVOK TX19/0518Z TN05/0510Z PROB30 TEMPO 0506/0512 3000 BR NSC =
SUDU 042315Z 0500/0524 11005KT CAVOK TX20/0518Z TN06/0510Z PROB30 TEMPO 0506/0512 3000 BR NSC =
SULS 042315Z 0500/0524 34005KT CAVOK TX19/0518Z TN05/0510Z PROB30 TEMPO 0506/0512 3000 BR NSC =
SUAA 042315Z 0500/0524 34005KT CAVOK TX19/0518Z TN05/0510Z PROB30 TEMPO 0506/0512 3000 BR NSC =
SUMU 042315Z 0500/0524 34005KT CAVOK TX19/0518Z TN05/0510Z PROB30 TEMPO 0506/0512 3000 BR NSC =
SBAE 041630Z 0418/0506 14010KT 9999 FEW040 TX32/0418Z TN19/0505Z PROB40 TEMPO 0418/0423 8000 RA SCT030 FEW040TCU RMK PDW =
SBAF 041500Z 0418/0506 18015KT 7000 BKN015TX24/0418Z TN17/0506ZPROB40 0418/0424 4000 RA BKN013 RMK PGU =
SBAN 041400Z 0418/0506 10005KT CAVOK TX32/0418Z TN20/0505Z BECMG 0500/0502 12005KT RMK PDE =
SBAR 041600Z 0418/0506 13010KT 9999 SCT017 TX27/0418Z TN25/0505Z BECMG 0500/0502 8000 BKN018 RMK PCU =
SBAT 041600Z 0418/0506 03005KT 9999 SCT035 TX40/0418Z TN21/0506Z BECMG 0419/0421 09003KT BECMG 0422/0424 00000KT CAVOK RMK PEN =
SBAU 041630Z 0418/0506 14008KT CAVOK TX33/0418Z TN21/0505Z RMK PDW =
SBAX 041530Z 0418/0506 05005KT CAVOK TX31/0419Z TN18/0505ZBECMG 0419/0421 32005KTBECMG 0502/0504 03005KT RMK PGD =
SBBE 040400Z 0406/0506 06005KT CAVOK TN23/0409Z TX31/0415Z BECMG 0409/0411 05015KT 9999 SCT015 BECMG 0413/0415 34010KT BKN030 BECMG 0417/0418 03010KT 4000 TSRA BKN015 FEW030CB BECMG 0420/0422 04005KT 9999 FEW030 BECMG 0500/0502 05010KT CAVOK BECMG 0504/0505 06005KT RMK PDY =
SBBG 032320Z 0406/0506 18008KT 9999 SCT030 TN10/0409Z TX19/0417Z PROB40 0406/0412 5000 BR SCT008 SCT015 RMK PER =
SBBH 041400Z 0418/0506 08005KT CAVOK TX31/0419Z TN20/0505Z BECMG 0500/0502 12005KT RMK PDE =
SBBI 041630Z 0418/0506 12008KT 9999 BKN020 TX18/0418Z TN14/0505Z PROB40 0418/0420 7000 VCSH BKN012 BKN020 BECMG 0420/0422 BKN007 TEMPO 0500/0506 5000 BR OVC006 RMK PDW =
SBBP 041530Z 0418/0506 14010KT 9999 BKN020 TX24/0419Z TN15/0505ZTEMPO 0418/0424 23015KT 5000 DZ BR BKN015BECMG 0500/0502 CAVOK RMK PGD =
SBBR 040500Z 0406/0506 00000KT CAVOK TN12/0408Z TX31/0418ZBECMG 0411/0413 07005KT BECMG 0417/0419 04005KT BECMG 0421/0423 20005KTPROB30 TEMPO 0500/0508 00000KT BECMG 0302/0304 00000KT RMK PDS =
SBBU 041630Z 0418/0506 12010KT 9999 FEW040 TX32/0418Z TN19/0505Z PROB40 TEMPO 0418/0423 8000 RA SCT035 FEW040TCU RMK PDW =
SBBV 040400Z 0406/0506 04005KT CAVOK TN25/0406Z TX33/0419Z BECMG 0407/0409 9999 FEW010 BECMG 0411/0413 SCT020 BECMG 0415/0417 33005KT SCT030 FEW35TCU BECMG 0419/0421 05005KT BECMG 0423/0501 05005KT CAVOK RMK PDY =
SBBW 041100Z 0412/0512 10005KT CAVOK TX38/0418Z TN28/0423ZBECMG 0420/0422 07005KT RMK PDS =
SBCB 040315Z 0406/0506 05010KT 7000 SCT016 TN20/0409Z TX26/0416Z BECMG 0407/0409 27010KT PROB30 0409/0412 4000 BR BKN012 BECMG 0413/0415 24015KT BKN016 PROB30 0418/0424 20015KT 4000 SHRA BKN012 BECMG 0501/0503 17015KT RMK PGS =
SBCC 041600Z 0418/0506 09008KT 9999 SCT020 TX35/0418Z TN23/0506Z BECMG 0422/0424 04005KT CAVOK RMK PEN =
SBCF 040500Z 0406/0506 09005KT CAVOK TN16/0409Z TX30/0418ZPROB40 0412/0413 05010KT BECMG 0414/0416 33010KT BECMG 0418/0420 25010KTBECMG 0421/0423 09010KT RMK PDS =
SBCG 032320Z 0406/0506 18008KT CAVOK TN23/0409Z TX32/0417Z RMK PER =
SBCI 041600Z 0418/0506 02005KT 9999 SCT025 TX41/0418Z TN20/0506Z BECMG 0422/0424 00000KT CAVOK RMK PEN =
SBCJ 041600Z 0418/0506 03005KT 9999 SCT023 FEW030TCU TX31/0418Z TN22/0506Z BECMG 0422/0424 00000KT FEW025 RMK PEN =
SBCM 041630Z 0418/0506 12005KT 9999 SCT008 BKN015 TX18/0418Z TN15/0505Z TEMPO 0418/0506 3000 RA BKN006 BKN013 RMK PDW =
SBCN 041100Z 0412/0512 00000KT CAVOK TX34/0418Z TN24/0423ZRMK PDS =
SBCO 041630Z 0418/0506 14008KT 9999 SCT030 TX20/0418Z TN14/0505Z PROB40 0418/0422 8000 SHRA BKN030 FEW040TCU BECMG 0500/0502 14004KT 6000 NSC RMK PDW =
SBCP 041500Z 0418/0506 06015KT 7000 BKN017TX30/0418Z TN20/0506ZPROB40 0420/0501 4000 SHRA BKN012 RMK PGU =
SBCR 032320Z 0406/0506 21008KT CAVOK TN23/0409Z TX32/0417Z RMK PER =
SBCT 032320Z 0406/0506 33005KT 9999 BKN008 TN13/0409Z TX18/0417Z PROB40 0406/0411 2500 BCFG BR OVC003 BECMG 0411/0412 16008KT 6000 SCT010 BKN015 BECMG 0413/0415 9999 BKN020 BECMG 0422/0424 SCT008 BKN012 RMK PER =
SBCX 041630Z 0418/0506 16005KT 9999 BKN020 TX16/0418Z TN12/0505Z BECMG 0422/0424 12005KT 6000 BKN010 RMK PDW =
SBCY 040400Z 0406/0506 03005KT CAVOK TN22/0409Z TX40/0417Z BECMG 0407/0409 34005KT RMK PDY =
SBCZ 040400Z 0406/0506 00000KT CAVOK TN23/0406Z TX35/0418Z BECMG 0413/0415 34005KT 9999 SCT015 BECMG 0417/0419 00000KT BKN030 BECMG 0421/0423 SCT025 BECMG0501/0503 CAVOK RMK PDY =
SBDB 041630Z 0418/0506 19008KT 9999 FEW030 TX29/0418Z TN21/0505Z RMK PDW =
SBDN 041630Z 0418/0506 12008KT 9999 FEW040 TX32/0418Z TN20/0505Z RMK PDW =
SBDO 041630Z 0418/0506 16008KT 9999 FEW030 TX28/0418Z TN20/0505Z RMK PDW =
SBEG 040400Z 0406/0506 00000KT CAVOK TN24/0406Z TX34/0416Z BECMG 0412/0414 32005KT 9999 SCT025 BECMG 0416/0418 25010KT SCT020 FEW025TCU BECMG 0420/0422 04005KT FEW020 BECMG 0500/0502 00000KT CAVOK RMK PDY =
SBES 041500Z 0418/0506 19015KT 7000 BKN016TX25/0418Z TN18/0506ZPROB40 0418/0424 21015G25KT 4000 SHRA BKN012 RMK PGU =
SBFI 032320Z 0406/0506 20008KT 9999 BKN030 TN19/0409Z TX26/0417Z BECMG 0412/0414 SCT030 BECMG 0500/0502 SCT010 SCT020 RMK PER =
SBFL 032320Z 0406/0506 18008KT 9999 SCT012 SCT025 TN15/0409Z TX21/0417Z BECMG 0412/0414 19010KT SCT030 PROB40 TEMPO 0418/0424 6000 RA SCT012 BKN030 BECMG 0500/0502 SCT012 SCT020 RMK PER =
SBFN 041600Z 0418/0506 12010KT 9999 SCT020 TX28/0418Z TN25/0505Z RMK PCU =
SBFZ 040300Z 0406/0506 11013KT 9999 SCT020 TN25/0407Z TX29/0415Z BECMG 0411/0413 11017KT BECMG 0419/0421 10011KT RMK PEA =
SBGL 032100Z 0400/0506 12005KT 9999 SCT020 TN19/0409Z TX24/0418Z PROB40 0408/0413 23003KT 4000 DZ BR BKN010 BECMG 0418/0420 19010KT BECMG 0421/0423 24005KT PROB30 0502/0504 4000 SHRA BKN010 FEW025TCU RMK PGY =
SBGO 040500Z 0406/0506 00000KT CAVOK TN18/0408Z TX35/0418ZBECMG 0410/0412 36010KT BECMG 0419/0421 10005KT PROB30 TEMPO 0502/0506 30005KT RMK PDS =
SBGR 032230Z 0400/0506 12005KT 8000 NSC TN15/0409Z TX25/0418ZPROB30 0401/0404 BKN008PROB30 0408/0412 3000 BR BKN005BECMG 0412/0414 14005KT 9999 BKN025PROB30 0420/0424 18005KT 5000 BR BKN009BECMG 0500/0502 08005KT 8000 NSC RMK PGL =
SBGV 041600Z 0418/0506 09007KT 9999 SCT035 TX31/0418Z TN25/0505Z RMK PCU =
SBGW 041500Z 0418/0506 19010KT 7000 BKN016TX28/0418Z TN16/0506ZPROB40 0418/0424 20015KT 4000 SHRA BKN012 RMK PGU =
SBHT 041600Z 0418/0506 10008KT 9999 BKN025 TX35/0418Z TN20/0506Z BECMG 0422/0424 00000KT FEW030 RMK PEN =
SBIH 041600Z 0418/0506 12008KT 9999 SCT025 TX37/0418Z TN24/0506Z PROB30 0418/0420 TS SCT022 FEW025CB BECMG 0421/0423 00000KT FEW017 RMK PEN =
SBIL 041600Z 0418/0506 10008KT 9999 SCT020 SCT035 TX28/0418Z TN22/0505Z BECMG 0500/0502 27004KT RMK PCU =
SBIP 041400Z 0418/0506 05007KT CAVOK TX32/0420Z TN15/0505Z BECMG 0500/0502 04005KT RMK PDE =
SBIZ 041600Z 0418/0506 08008KT 9999 BKN025 TX38/0418Z TN21/0506Z BECMG 0422/0424 00000KT CAVOK RMK PEN =
SBJD 041530Z 0418/0506 14010KT 9999 BKN025 TX23/0419Z TN14/0505ZTEMPO 0418/0424 23015KT 5000 DZ BR BKN015BECMG 0501/0503 CAVOK RMK PGD =
SBJF 041500Z 0418/0506 18010KT 6000 BKN012TX26/0418Z TN16/0506Z RMK PGU =
SBJI 041600Z 0418/0506 32005KT 9999 SCT020 TX35/0418Z TN19/0506Z BECMG 0419/0421 SCT030 FEW033TCU BECMG 0422/0424 00000KT FEW030 RMK PEN =
SBJP 040300Z 0406/0506 21005KT 9999 SCT020 TN21/0407Z TX29/0415Z BECMG 0411/0412 13010KT BECMG 0421/0422 14006KT BECMG 0502/0504 21004KT RMK PEA =
SBJR 041500Z 0418/0506 19015KT 7000 BKN015TX23/0418Z TN17/0506ZPROB40 0418/0424 4000 RA BKN012 RMK PGU =
SBJU 041600Z 0418/0506 18005KT 9999 FEW020 TX36/0418Z TN27/0505Z BECMG 0500/0502 00000KT RMK PCU =
SBJV 041630Z 0418/0506 16008KT 9999 SCT008 BKN013 TX20/0418Z TN17/0505Z TEMPO 0418/0424 3500 RA BR BKN006 BKN012 BECMG 0500/0502 20005KT 3000 BR BKN004 BKN008 RMK PDW =
SBKG 041600Z 0418/0506 11008KT 9999 SCT025 TX28/0418Z TN20/0505Z BECMG 0502/0503 SCT012 RMK PCU =
SBKP 040200Z 0406/0506 14010KT CAVOK TN16/0409Z TX28/0417ZPROB30 0408/0410 4000 BR NSCBECMG 0410/0412 SCT030BECMG 0415/0417 CAVOKBECMG 0500/0502 17010KT RMK PGL =
SBLE 041600Z 0418/0506 13008KT 9999 FEW035 TX34/0418Z TN22/0505Z RMK PCU =
SBLO 041630Z 0418/0506 12008KT 9999 SCT020 TX25/0418Z TN18/0505Z PROB40 0418/0422 6000 SHRA BKN020 FEW030TCU RMK PDW =
SBLP 041600Z 0418/0506 18005KT 9999 FEW030 TX35/0418Z TN22/0505Z RMK PCU =
SBMA 041600Z 0418/0506 36005KT 9999 SCT025 TX35/0418Z TN24/0506Z BECMG 0421/0423 33003KT CAVOK BECMG 0503/0505 30003KT RMK PEN =
SBME 041500Z 0418/0506 15015KT 7000 BKN017TX30/0418Z TN19/0506ZPROB40 0420/0502 4000 SHRA BKN012 RMK PGU =
SBMG 041630Z 0418/0506 12008KT 9999 FEW030 TX25/0418Z TN18/0505Z PROB40 0418/0422 8000 VCSH SCT030 FEW040TCU RMK PDW =
SBMK 041400Z 0418/0506 10005KT CAVOK TX32/0419Z TN17/0505Z BECMG 0500/0502 06005KT RMK PDE =
SBML 041630Z 0418/0506 14010KT 9999 SCT035 TX32/0418Z TN19/0505Z PROB40 TEMPO 0418/0423 8000 RA BKN030 FEW40TCU RMK PDW =
SBMN 040400Z 0406/0506 32002KT CAVOK TN25/0408Z TX33/0417Z BECMG 0407/0409 04005KT BECMG 0411/0413 27005KT 9999 SCT020 BECMG 0415/0417 SCT020 FEW025TCU BECMG 0419/0421 15002KT FEW020 BECMG 0423/0501 09005KT CAVOK BECMG 0503/0505 32002KT RMK PDY =
SBMO 040300Z 0406/0506 33003KT 9999 SCT020 TN21/0406Z TX28/0415Z BECMG 0411/0412 12008KT BECMG 0501/0502 33003KT RMK PEA =
SBMQ 040400Z 0406/0506 03005KT CAVOK TN26/0408Z TX36/0416Z BECMG 0407/0409 30005KT BECMG 0411/0413 09010KT 9999 FEW025 BECMG 0415/0417 05010KT SCT030 FEW035TCU BECMG 0419/0421 FEW030 BECMG 0423/0501 FEW013 BECMG 0503/0505 03005KT CAVOK RMK PDY =
SBMT 041530Z 0418/0506 15005KT 8000 BKN015 TX21/0419Z TN14/0505ZPROB30 TEMPO 0418/0503 4000 DZ BR BKN010BECMG 0503/0505 7000 BKN012 RMK PGD =
SBMY 041600Z 0418/0506 34005KT 9999 SCT020 TX35/0418Z TN21/0506Z BECMG 0419/0421 SCT020 FEW025TCU BECMG 0422/0424 00000KT FEW020 RMK PEN =
SBNF 032320Z 0406/0506 18008KT 9999 SCT005 SCT020 TN14/0409Z TX21/0417Z PROB40 0406/0411 3000 BR BKN004 BKN010 BECMG 0411/0412 19010KT 6000 SCT008 SCT012 BECMG 0413/0415 9999 SCT030 PROB40 TEMPO 0418/0422 6000 RA SCT010 BKN030 BECMG 0500/0502 SCT010 SCT020 RMK PER =
SBNT 040300Z 0406/0506 17006KT 9999 SCT025 TN21/0407Z TX28/0415Z BECMG 0410/0412 12014KT BECMG 0501/0503 17006KT RMK PEA =
SBOI 041600Z 0418/0506 14008KT 9999 BKN040 TX34/0418Z TN24/0506Z BECMG 0422/0424 09003KT FEW020 RMK PEN =
SBPA 032320Z 0406/0506 16010KT 6000 BKN008 TN13/0409Z TX19/0417Z PROB40 TEMPO 0406/0411 3000 RA BR SCT004 BKN007 BECMG 0411/0413 16008KT 9999 SCT008 BKN012 BECMG 0414/0416 SCT030 BECMG 0500/0502 SCT010 BKN025 RMK PER =
SBPB 040300Z 0406/0506 04016KT 9999 FEW018 TN28/0410Z TX34/0414Z RMK PEA =
SBPJ 041400Z 0418/0506 18005KT CAVOK TX37/0418Z TN23/0505Z PROB40 0418/0524 5000 FU BECMG 0500/0502 13005KT RMK PDE =
SBPK 032320Z 0406/0506 16008KT 9999 BKN030 TN09/0409Z TX19/0417Z PROB40 0406/0412 5000 BR BECMG 0412/0414 SCT040 RMK PER =
SBPL 040300Z 0406/0506 15008KT CAVOK TN22/0408Z TX33/0418Z RMK PEA =
SBPP 032320Z 0406/0506 18008KT 9999 FEW020 TN19/0409Z TX29/0417Z RMK PER =
SBPS 040300Z 0406/0506 29004KT 9999 SCT020 TN20/0409Z TX27/0414Z BECMG 0411/0412 14007KT BECMG 0501/0503 29004KT RMK PEA =
SBPV 040400Z 0406/0506 30005KT 5000 BR FEW020 TN21/0406Z TX34/0417Z BECMG 0407/0409 00000KT BECMG 0411/0413 29005KT CAVOK BECMG 0415/0417 17010KT 8000 TSRA BKN025 FEW030CB BECMG 0419/0421 32002KT 9999 SCT020 RMK PDY =
SBQV 041600Z 0418/0506 12010KT 9999 SCT020 TX26/0418Z TN18/0503Z BECMG 0500/0502 BKN010 RMK PCU =
SBRB 040400Z 0406/0506 33002KT 9999 FEW004 TN20/0409Z TX33/0416Z BECMG 0407/0409 03002KT BECMG 0411/0413 25005KT 9999 FEW020 BECMG 0415/0416 25010KT BECMG 0418/0419 32010KT 8000 TSRA BKN015 FEW025CB BECMG 0421/0423 33005KT 9999 FEW020 BECMG0501/0503 25005KT CAVOK RMK PDY =
SBRF 040300Z 0406/0506 14006KT 9999 SCT023 TN24/0408Z TX28/0415Z RMK PEA =
SBRJ 041500Z 0418/0506 17015KT 7000 BKN015TX23/0418Z TN17/0506ZPROB40 0418/0424 4000 RA BKN012 RMK PGU =
SBRP 040200Z 0406/0506 00000KT CAVOK TN17/0408Z TX35/0418ZPROB30 0410/0412 5000 BR NSCBECMG 0412/0414 04005KTBECMG 0414/0416 25005KT SCT030BECMG 0418/0420 14005KT CAVOKBECMG 0500/0502 00000KT RMK PGL =
SBSC 041500Z 0418/0506 20015KT 7000 BKN015TX23/0418Z TN18/0506ZPROB40 0418/0424 4000 RA BKN012 RMK PGU =
SBSG 040300Z 0406/0506 23004KT 9999 SCT020 TN20/0408Z TX29/0415Z BECMG 0410/0412 16011KT BKN030 BECMG 0417/0419 SCT030 BECMG 0421/0423 23005KT RMK PEA =
SBSJ 040315Z 0406/0506 15005KT 7000 SCT016 TN16/0408Z TX26/0417Z PROB30 0408/0412 3000 BR BKN012 BECMG 0412/0414 10005KT BKN016 BECMG 0416/0418 18010KT PROB30 0418/0424 4000 SHRA BKN012 BECMG 0501/0503 15005KT BECMG 0504/0506 6000 BKN012 RMK PGS =
SBSL 040400Z 0406/0506 05010KT 9999 SCT015 TN26/0406Z TX31/0416Z BECMG 0409/0411 05015KT BECMG 0413/0415 04010KT BKN020 BECMG 0417/0419 SCT020 RMK PDY =
SBSM 041630Z 0418/0506 12008KT 9999 SCT030 TX19/0418Z TN13/0505Z BECMG 0422/0424 CAVOK RMK PDW =
SBSN 040400Z 0406/0506 04005KT CAVOK TN23/0406Z TX33/0415Z BECMG 0410/0412 04010KT 9999 FEW017 BECMG 0417/0419 04005KT BECMG 0421/0423 14005KT CAVOK BECMG 0503/0505 00000KT RMK PDY =
SBSP 040200Z 0406/0506 15005KT 8000 NSC TN15/0409Z TX25/0418ZPROB30 0408/0411 4000 BR OVC007BECMG 0413/0415 9999 BKN025PROB30 0419/0424 19005KT 5000 BR BKN008BECMG 0500/0502 07005KT 7000 NSC RMK PGL =
SBSR 041530Z 0418/0506 23005KT CAVOK TX34/0419Z TN21/0505ZBECMG 0500/0502 00000KTBECMG 0502/0504 11005KT RMK PGD =
SBST 041500Z 0418/0506 20015KT 4000 RA BKN012TX19/0418Z TN16/0506Z RMK PGU =
SBSV 040300Z 0406/0506 17007KT 9999 SCT017 TN24/0409Z TX27/0414Z RMK PEA =
SBTA 041500Z 0418/0506 20010KT 7000 BKN016TX25/0418Z TN16/0506ZPROB40 0418/0424 20015KT 4000 SHRA BKN012 RMK PGU =
SBTB 041600Z 0418/0506 11005KT 9999 SCT020 TX35/0418Z TN22/0506Z BECMG 0422/0424 00000KT CAVOK RMK PEN =
SBTE 041600Z 0418/0506 34006KT 9999 FEW035 TX37/0419Z TN25/0505Z RMK PCU =
SBTF 041600Z 0418/0506 02005KT 9999 SCT020 FEW025TCU TX33/0418Z TN24/0506Z BECMG 0423/0424 00000KT FEW015 RMK PEN =
SBTK 041600Z 0418/0506 32005KT 9999 SCT030 TX34/0419Z TN20/0506Z BECMG 0420/0422 36008KT SCT025 FEW033TCU BECMG 0422/0424 00000KT FEW030 RMK PEN =
SBTT 040400Z 0406/0506 00000KT CAVOK TN20/0406Z TX31/0419Z BECMG 0410/0412 32005KT 9999 FEW015 BECMG 0415/0417 SCT020 FEW025TCU BECMG 0419/0421 33002KT FEW020 BECMG 0423/0501 00000KT CAVOK RMK PDY =
SBTU 041600Z 0418/0506 07005KT 9999 SCT025 TX34/0418Z TN23/0506Z BECMG 0421/0423 00000KT CAVOK RMK PEN =
SBUA 041600Z 0418/0506 26005KT 9999 SCT020 FEW025TCU TX35/0418Z TN23/0506Z PROB30 0419/0423 4000 TSRA SCT020 FEW025CB BECMG 0500/0502 00000KT FEW015 RMK PEN =
SBUF 041600Z 0418/0506 10010KT 9999 SCT022 TX33/0418Z TN25/0505Z RMK PCU =
SBUG 032320Z 0406/0506 19008KT 9999 FEW030 TN11/0409Z TX21/0417Z BECMG 0418/0420 SCT030 RMK PER =
SBUL 041530Z 0418/0506 35005KT CAVOK TX32/0419Z TN20/0505ZBECMG 0502/0504 03005KT RMK PGD =
SBUR 041530Z 0418/0506 03005KT CAVOK TX33/0419Z TN22/0505ZPROB30 0418/0503 25005KT 5000 HZ NSC RMK PGD =
SBVG 041530Z 0418/0506 34005KT CAVOK TX31/0419Z TN20/0505ZBECMG 0421/0422 04005KT RMK PGD =
SBVH 041600Z 0418/0506 12008KT 9999 SCT025 FEW030TCU TX35/0418Z TN20/0506Z PROB30 0419/0422 TS SCT020 FEW025CB BECMG 0422/0424 34003KT CAVOK RMK PEN =
SBVT 040300Z 0406/0506 06009KT 9999 SCT025 TN19/0409Z TX25/0415Z RMK PEA =
SBYS 041530Z 0418/0506 15005KT CAVOK TX32/0419Z TN15/0505ZTEMPO 0418/0421 25005KT SCT030 RMK PGD =
SBZM 041500Z 0418/0506 17010KT 7000 BKN016TX27/0418Z TN17/0506Z RMK PGU =SABE 042300Z 0500/0524 36005KT CAVOK TX20/0518Z TN08/0510Z TEMPO 0502/0505 VRB03KT PROB30 TEMPO 0509/0511 5000 BR NSC BECMG 0518/0520 09015KT =
SAZB 042300Z 0500/0524 07010KT CAVOK TX20/0518Z TN06/0510Z BECMG 0508/0510 36010KT =
SAZS 042300Z 0500/0524 00000KT CAVOK TX15/0519Z TNM01/0512Z BECMG 0513/0514 34005KT =
SANC 042300Z 0500/0524 02010G20KT SCT040 TX25/0518Z TN11/0510Z BECMG 0504/0508 VRB03KT 9999 FEW030 BECMG 0514/0517 02020G30KT CAVOK =
SAZY 042300Z 0500/0524 00000KT CAVOK TX16/0519Z TNM01/0512Z =
SAVC 042300Z 0500/0524 29016KT CAVOK TX21/0519Z TN07/0512Z =
SACO 042300Z 0500/0524 07005KT CAVOK TX23/0518Z TN05/0510Z PROB30 TEMPO 0508/0511 VRB02KT 4000 BR NSC BECMG 0513/0517 02010G20KT =
SARC 042300Z 0500/0524 16005KT CAVOK TX24/0518Z TN09/0509Z BECMG 0506/0508 5000 BR NSC BECMG 0512/0514 09005KT 8000 NSC =
SAWC 042300Z 0500/0524 27025G38KT 9999 FEW040 SCT100 TX16/0519Z TN05/0512Z =
SAVE 042300Z 0500/0524 05002KT CAVOK TX15/0519Z TN02/0512Z =
SAEZ 042300Z 0500/0524 VRB03KT CAVOK TX21/0518Z TN06/0510Z TEMPO 0506/0512 3000 MIFG BR NSC BECMG 0513/0516 36008KT 9999 SCT040 BECMG 0521/0524 04008KT =
SARF 042300Z 0500/0524 14010KT CAVOK TX26/0518Z TN11/0509Z =
SARI 042300Z 0500/0524 18005KT CAVOK TX24/0518Z TN10/0509Z BECMG 0506/0508 5000 BR NSC BECMG 0512/0514 11005KT CAVOK =
SASJ 042300Z 0500/0524 09005KT CAVOK TX24/0518Z TN08/0510Z PROB40 TEMPO 0509/0512 4000 BKN020 =
SANL 042300Z 0500/0524 18005KT SCT045 TX25/0518Z TN10/0510Z =
SAZM 042300Z 0500/0524 23005KT 5000 BR SCT008 TX17/0518Z TN02/0510Z TEMPO 0508/0511 3000 BR BKN003 BECMG 0513/0515 05005KT CAVOK =
SAME 042300Z 0500/0524 05005KT 9999 FEW040 TN07/0511Z TX24/0520Z BECMG 0515/0517 02010KT =
SAZN 042300Z 0500/0524 VRB03KT CAVOK TX24/0519Z TN05/0512Z BECMG 0514/0516 36015KT =
SAAP 042300Z 0500/0524 VRB03KT CAVOK TX21/0518Z TN08/0510Z PROB40 TEMPO 0508/0511 4000 BR NSC BECMG 0518/0520 07010KT =
SARP 042300Z 0500/0524 16005KT CAVOK TX24/0518Z TN09/0509Z BECMG 0506/0508 5000 BR NSC BECMG 0512/0514 09005KT CAVOK =
SARE 042300Z 0500/0524 16005KT CAVOK TX24/0518Z TN09/0509Z BECMG 0506/0508 5000 BR NSC BECMG 0512/0514 09005KT 8000 NSC =
SAWG 042300Z 0500/0524 25025G38KT 9999 FEW030 FEW090 TX17/0519Z TN05/0512Z =
SAWE 042300Z 0500/0524 27038G49KT 9999 FEW020 TX15/0519Z TN04/0512Z BECMG 0506/0508 29020G30KT 8000 -RA SCT020 SCT090 =
SAAR 042300Z 0500/0524 VRB03KT CAVOK TX20/0518Z TN04/0510Z PROB30 TEMPO 0508/0511 5000 BR NSC BECMG 0520/0522 07010KT =
SASA 042300Z 0500/0524 VRB02KT 9999 SCT020 TX23/0518Z TN09/0510Z PROB40 TEMPO 0509/0512 3000 BR BKN010 =
SADF 042300Z 0500/0524 VRB03KT CAVOK TX21/0510Z TN08/0509Z BECMG 0505/0507 32010KT PROB30 TEMPO 0508/0511 5000 BR NSC BECMG 0518/0520 09010KT =
SANU 042300Z 0500/0524 14010KT CAVOK TN06/0511Z TX26/0520Z BECMG 0515/0517 05010KT =
SAOU 042300Z 0500/0524 11010KT 9999 FEW030 TN11/0509Z TX25/0519Z BECMG 0509/0511 36010KT =
SAMR 042300Z 0500/0524 14005KT CAVOK TN04/0511Z TX23/0520Z BECMG 0515/0517 36010KT =
SAZR 042300Z 0500/0524 16005KT CAVOK TX24/0519Z TN06/0510Z BECMG 0503/0505 07005KT BECMG 0513/0515 36010KT =
SANE 042300Z 0500/0524 09005KT CAVOK TX23/0518Z TN10/0511Z TEMPO 0510/0512 5000 BR =
SAAV 042300Z 0500/0524 00000KT CAVOK TX22/0518Z TN08/0510Z PRB40 TEMPO 0508/0512 VRB03KT 2000 BR NSC BECMG 0513/0514 05005KT CAVOK =
SANR 042300Z 0500/0524 23005KT 9999 BKN035 TX25/0518Z TN12/0510Z PROB30 TEMPO 0508/0512 VRB02KT 4000 BR SCT020 =
SAVT 042300Z 0500/0524 27010KT CAVOK TX19/0519Z TN05/0512Z =
SANT 042300Z 0500/0524 18005KT 2000 FU NSC TX25/0518Z TN12/0510Z PROB30 TEMPO 0508/0512 VRB02KT 1000 BR FU FEW020 =
SAWH 042300Z 0500/0524 23020G38KT 9999 VCSH SCT040 TX12/0519Z TN01/0512Z =
SAVV 042300Z 0500/0524 14006KT CAVOK TX20/0519Z TN05/0512Z =
SUCA 042315Z 0500/0524 34005KT CAVOK TX19/0518Z TN05/0510Z PROB30 TEMPO 0506/0512 3000 BR NSC =
SUDU 042315Z 0500/0524 11005KT CAVOK TX20/0518Z TN06/0510Z PROB30 TEMPO 0506/0512 3000 BR NSC =
SULS 042315Z 0500/0524 34005KT CAVOK TX19/0518Z TN05/0510Z PROB30 TEMPO 0506/0512 3000 BR NSC =
SUAA 042315Z 0500/0524 34005KT CAVOK TX19/0518Z TN05/0510Z PROB30 TEMPO 0506/0512 3000 BR NSC =
SUMU 042315Z 0500/0524 34005KT CAVOK TX19/0518Z TN05/0510Z PROB30 TEMPO 0506/0512 3000 BR NSC =
SBAE 041630Z 0418/0506 14010KT 9999 FEW040 TX32/0418Z TN19/0505Z PROB40 TEMPO 0418/0423 8000 RA SCT030 FEW040TCU RMK PDW =
SBAF 041500Z 0418/0506 18015KT 7000 BKN015TX24/0418Z TN17/0506ZPROB40 0418/0424 4000 RA BKN013 RMK PGU =
SBAN 041400Z 0418/0506 10005KT CAVOK TX32/0418Z TN20/0505Z BECMG 0500/0502 12005KT RMK PDE =
SBAR 041600Z 0418/0506 13010KT 9999 SCT017 TX27/0418Z TN25/0505Z BECMG 0500/0502 8000 BKN018 RMK PCU =
SBAT 041600Z 0418/0506 03005KT 9999 SCT035 TX40/0418Z TN21/0506Z BECMG 0419/0421 09003KT BECMG 0422/0424 00000KT CAVOK RMK PEN =
SBAU 041630Z 0418/0506 14008KT CAVOK TX33/0418Z TN21/0505Z RMK PDW =
SBAX 041530Z 0418/0506 05005KT CAVOK TX31/0419Z TN18/0505ZBECMG 0419/0421 32005KTBECMG 0502/0504 03005KT RMK PGD =
SBBE 040400Z 0406/0506 06005KT CAVOK TN23/0409Z TX31/0415Z BECMG 0409/0411 05015KT 9999 SCT015 BECMG 0413/0415 34010KT BKN030 BECMG 0417/0418 03010KT 4000 TSRA BKN015 FEW030CB BECMG 0420/0422 04005KT 9999 FEW030 BECMG 0500/0502 05010KT CAVOK BECMG 0504/0505 06005KT RMK PDY =
SBBG 032320Z 0406/0506 18008KT 9999 SCT030 TN10/0409Z TX19/0417Z PROB40 0406/0412 5000 BR SCT008 SCT015 RMK PER =
SBBH 041400Z 0418/0506 08005KT CAVOK TX31/0419Z TN20/0505Z BECMG 0500/0502 12005KT RMK PDE =
SBBI 041630Z 0418/0506 12008KT 9999 BKN020 TX18/0418Z TN14/0505Z PROB40 0418/0420 7000 VCSH BKN012 BKN020 BECMG 0420/0422 BKN007 TEMPO 0500/0506 5000 BR OVC006 RMK PDW =
SBBP 041530Z 0418/0506 14010KT 9999 BKN020 TX24/0419Z TN15/0505ZTEMPO 0418/0424 23015KT 5000 DZ BR BKN015BECMG 0500/0502 CAVOK RMK PGD =
SBBR 040500Z 0406/0506 00000KT CAVOK TN12/0408Z TX31/0418ZBECMG 0411/0413 07005KT BECMG 0417/0419 04005KT BECMG 0421/0423 20005KTPROB30 TEMPO 0500/0508 00000KT BECMG 0302/0304 00000KT RMK PDS =
SBBU 041630Z 0418/0506 12010KT 9999 FEW040 TX32/0418Z TN19/0505Z PROB40 TEMPO 0418/0423 8000 RA SCT035 FEW040TCU RMK PDW =
SBBV 040400Z 0406/0506 04005KT CAVOK TN25/0406Z TX33/0419Z BECMG 0407/0409 9999 FEW010 BECMG 0411/0413 SCT020 BECMG 0415/0417 33005KT SCT030 FEW35TCU BECMG 0419/0421 05005KT BECMG 0423/0501 05005KT CAVOK RMK PDY =
SBBW 041100Z 0412/0512 10005KT CAVOK TX38/0418Z TN28/0423ZBECMG 0420/0422 07005KT RMK PDS =
SBCB 040315Z 0406/0506 05010KT 7000 SCT016 TN20/0409Z TX26/0416Z BECMG 0407/0409 27010KT PROB30 0409/0412 4000 BR BKN012 BECMG 0413/0415 24015KT BKN016 PROB30 0418/0424 20015KT 4000 SHRA BKN012 BECMG 0501/0503 17015KT RMK PGS =
SBCC 041600Z 0418/0506 09008KT 9999 SCT020 TX35/0418Z TN23/0506Z BECMG 0422/0424 04005KT CAVOK RMK PEN =
SBCF 040500Z 0406/0506 09005KT CAVOK TN16/0409Z TX30/0418ZPROB40 0412/0413 05010KT BECMG 0414/0416 33010KT BECMG 0418/0420 25010KTBECMG 0421/0423 09010KT RMK PDS =
SBCG 032320Z 0406/0506 18008KT CAVOK TN23/0409Z TX32/0417Z RMK PER =
SBCI 041600Z 0418/0506 02005KT 9999 SCT025 TX41/0418Z TN20/0506Z BECMG 0422/0424 00000KT CAVOK RMK PEN =
SBCJ 041600Z 0418/0506 03005KT 9999 SCT023 FEW030TCU TX31/0418Z TN22/0506Z BECMG 0422/0424 00000KT FEW025 RMK PEN =
SBCM 041630Z 0418/0506 12005KT 9999 SCT008 BKN015 TX18/0418Z TN15/0505Z TEMPO 0418/0506 3000 RA BKN006 BKN013 RMK PDW =
SBCN 041100Z 0412/0512 00000KT CAVOK TX34/0418Z TN24/0423ZRMK PDS =
SBCO 041630Z 0418/0506 14008KT 9999 SCT030 TX20/0418Z TN14/0505Z PROB40 0418/0422 8000 SHRA BKN030 FEW040TCU BECMG 0500/0502 14004KT 6000 NSC RMK PDW =
SBCP 041500Z 0418/0506 06015KT 7000 BKN017TX30/0418Z TN20/0506ZPROB40 0420/0501 4000 SHRA BKN012 RMK PGU =
SBCR 032320Z 0406/0506 21008KT CAVOK TN23/0409Z TX32/0417Z RMK PER =
SBCT 032320Z 0406/0506 33005KT 9999 BKN008 TN13/0409Z TX18/0417Z PROB40 0406/0411 2500 BCFG BR OVC003 BECMG 0411/0412 16008KT 6000 SCT010 BKN015 BECMG 0413/0415 9999 BKN020 BECMG 0422/0424 SCT008 BKN012 RMK PER =
SBCX 041630Z 0418/0506 16005KT 9999 BKN020 TX16/0418Z TN12/0505Z BECMG 0422/0424 12005KT 6000 BKN010 RMK PDW =
SBCY 040400Z 0406/0506 03005KT CAVOK TN22/0409Z TX40/0417Z BECMG 0407/0409 34005KT RMK PDY =
SBCZ 040400Z 0406/0506 00000KT CAVOK TN23/0406Z TX35/0418Z BECMG 0413/0415 34005KT 9999 SCT015 BECMG 0417/0419 00000KT BKN030 BECMG 0421/0423 SCT025 BECMG0501/0503 CAVOK RMK PDY =
SBDB 041630Z 0418/0506 19008KT 9999 FEW030 TX29/0418Z TN21/0505Z RMK PDW =
SBDN 041630Z 0418/0506 12008KT 9999 FEW040 TX32/0418Z TN20/0505Z RMK PDW =
SBDO 041630Z 0418/0506 16008KT 9999 FEW030 TX28/0418Z TN20/0505Z RMK PDW =
SBEG 040400Z 0406/0506 00000KT CAVOK TN24/0406Z TX34/0416Z BECMG 0412/0414 32005KT 9999 SCT025 BECMG 0416/0418 25010KT SCT020 FEW025TCU BECMG 0420/0422 04005KT FEW020 BECMG 0500/0502 00000KT CAVOK RMK PDY =
SBES 041500Z 0418/0506 19015KT 7000 BKN016TX25/0418Z TN18/0506ZPROB40 0418/0424 21015G25KT 4000 SHRA BKN012 RMK PGU =
SBFI 032320Z 0406/0506 20008KT 9999 BKN030 TN19/0409Z TX26/0417Z BECMG 0412/0414 SCT030 BECMG 0500/0502 SCT010 SCT020 RMK PER =
SBFL 032320Z 0406/0506 18008KT 9999 SCT012 SCT025 TN15/0409Z TX21/0417Z BECMG 0412/0414 19010KT SCT030 PROB40 TEMPO 0418/0424 6000 RA SCT012 BKN030 BECMG 0500/0502 SCT012 SCT020 RMK PER =
SBFN 041600Z 0418/0506 12010KT 9999 SCT020 TX28/0418Z TN25/0505Z RMK PCU =
SBFZ 040300Z 0406/0506 11013KT 9999 SCT020 TN25/0407Z TX29/0415Z BECMG 0411/0413 11017KT BECMG 0419/0421 10011KT RMK PEA =
SBGL 032100Z 0400/0506 12005KT 9999 SCT020 TN19/0409Z TX24/0418Z PROB40 0408/0413 23003KT 4000 DZ BR BKN010 BECMG 0418/0420 19010KT BECMG 0421/0423 24005KT PROB30 0502/0504 4000 SHRA BKN010 FEW025TCU RMK PGY =
SBGO 040500Z 0406/0506 00000KT CAVOK TN18/0408Z TX35/0418ZBECMG 0410/0412 36010KT BECMG 0419/0421 10005KT PROB30 TEMPO 0502/0506 30005KT RMK PDS =
SBGR 032230Z 0400/0506 12005KT 8000 NSC TN15/0409Z TX25/0418ZPROB30 0401/0404 BKN008PROB30 0408/0412 3000 BR BKN005BECMG 0412/0414 14005KT 9999 BKN025PROB30 0420/0424 18005KT 5000 BR BKN009BECMG 0500/0502 08005KT 8000 NSC RMK PGL =
SBGV 041600Z 0418/0506 09007KT 9999 SCT035 TX31/0418Z TN25/0505Z RMK PCU =
SBGW 041500Z 0418/0506 19010KT 7000 BKN016TX28/0418Z TN16/0506ZPROB40 0418/0424 20015KT 4000 SHRA BKN012 RMK PGU =
SBHT 041600Z 0418/0506 10008KT 9999 BKN025 TX35/0418Z TN20/0506Z BECMG 0422/0424 00000KT FEW030 RMK PEN =
SBIH 041600Z 0418/0506 12008KT 9999 SCT025 TX37/0418Z TN24/0506Z PROB30 0418/0420 TS SCT022 FEW025CB BECMG 0421/0423 00000KT FEW017 RMK PEN =
SBIL 041600Z 0418/0506 10008KT 9999 SCT020 SCT035 TX28/0418Z TN22/0505Z BECMG 0500/0502 27004KT RMK PCU =
SBIP 041400Z 0418/0506 05007KT CAVOK TX32/0420Z TN15/0505Z BECMG 0500/0502 04005KT RMK PDE =
SBIZ 041600Z 0418/0506 08008KT 9999 BKN025 TX38/0418Z TN21/0506Z BECMG 0422/0424 00000KT CAVOK RMK PEN =
SBJD 041530Z 0418/0506 14010KT 9999 BKN025 TX23/0419Z TN14/0505ZTEMPO 0418/0424 23015KT 5000 DZ BR BKN015BECMG 0501/0503 CAVOK RMK PGD =
SBJF 041500Z 0418/0506 18010KT 6000 BKN012TX26/0418Z TN16/0506Z RMK PGU =
SBJI 041600Z 0418/0506 32005KT 9999 SCT020 TX35/0418Z TN19/0506Z BECMG 0419/0421 SCT030 FEW033TCU BECMG 0422/0424 00000KT FEW030 RMK PEN =
SBJP 040300Z 0406/0506 21005KT 9999 SCT020 TN21/0407Z TX29/0415Z BECMG 0411/0412 13010KT BECMG 0421/0422 14006KT BECMG 0502/0504 21004KT RMK PEA =
SBJR 041500Z 0418/0506 19015KT 7000 BKN015TX23/0418Z TN17/0506ZPROB40 0418/0424 4000 RA BKN012 RMK PGU =
SBJU 041600Z 0418/0506 18005KT 9999 FEW020 TX36/0418Z TN27/0505Z BECMG 0500/0502 00000KT RMK PCU =
SBJV 041630Z 0418/0506 16008KT 9999 SCT008 BKN013 TX20/0418Z TN17/0505Z TEMPO 0418/0424 3500 RA BR BKN006 BKN012 BECMG 0500/0502 20005KT 3000 BR BKN004 BKN008 RMK PDW =
SBKG 041600Z 0418/0506 11008KT 9999 SCT025 TX28/0418Z TN20/0505Z BECMG 0502/0503 SCT012 RMK PCU =
SBKP 040200Z 0406/0506 14010KT CAVOK TN16/0409Z TX28/0417ZPROB30 0408/0410 4000 BR NSCBECMG 0410/0412 SCT030BECMG 0415/0417 CAVOKBECMG 0500/0502 17010KT RMK PGL =
SBLE 041600Z 0418/0506 13008KT 9999 FEW035 TX34/0418Z TN22/0505Z RMK PCU =
SBLO 041630Z 0418/0506 12008KT 9999 SCT020 TX25/0418Z TN18/0505Z PROB40 0418/0422 6000 SHRA BKN020 FEW030TCU RMK PDW =
SBLP 041600Z 0418/0506 18005KT 9999 FEW030 TX35/0418Z TN22/0505Z RMK PCU =
SBMA 041600Z 0418/0506 36005KT 9999 SCT025 TX35/0418Z TN24/0506Z BECMG 0421/0423 33003KT CAVOK BECMG 0503/0505 30003KT RMK PEN =
SBME 041500Z 0418/0506 15015KT 7000 BKN017TX30/0418Z TN19/0506ZPROB40 0420/0502 4000 SHRA BKN012 RMK PGU =
SBMG 041630Z 0418/0506 12008KT 9999 FEW030 TX25/0418Z TN18/0505Z PROB40 0418/0422 8000 VCSH SCT030 FEW040TCU RMK PDW =
SBMK 041400Z 0418/0506 10005KT CAVOK TX32/0419Z TN17/0505Z BECMG 0500/0502 06005KT RMK PDE =
SBML 041630Z 0418/0506 14010KT 9999 SCT035 TX32/0418Z TN19/0505Z PROB40 TEMPO 0418/0423 8000 RA BKN030 FEW40TCU RMK PDW =
SBMN 040400Z 0406/0506 32002KT CAVOK TN25/0408Z TX33/0417Z BECMG 0407/0409 04005KT BECMG 0411/0413 27005KT 9999 SCT020 BECMG 0415/0417 SCT020 FEW025TCU BECMG 0419/0421 15002KT FEW020 BECMG 0423/0501 09005KT CAVOK BECMG 0503/0505 32002KT RMK PDY =
SBMO 040300Z 0406/0506 33003KT 9999 SCT020 TN21/0406Z TX28/0415Z BECMG 0411/0412 12008KT BECMG 0501/0502 33003KT RMK PEA =
SBMQ 040400Z 0406/0506 03005KT CAVOK TN26/0408Z TX36/0416Z BECMG 0407/0409 30005KT BECMG 0411/0413 09010KT 9999 FEW025 BECMG 0415/0417 05010KT SCT030 FEW035TCU BECMG 0419/0421 FEW030 BECMG 0423/0501 FEW013 BECMG 0503/0505 03005KT CAVOK RMK PDY =
SBMT 041530Z 0418/0506 15005KT 8000 BKN015 TX21/0419Z TN14/0505ZPROB30 TEMPO 0418/0503 4000 DZ BR BKN010BECMG 0503/0505 7000 BKN012 RMK PGD =
SBMY 041600Z 0418/0506 34005KT 9999 SCT020 TX35/0418Z TN21/0506Z BECMG 0419/0421 SCT020 FEW025TCU BECMG 0422/0424 00000KT FEW020 RMK PEN =
SBNF 032320Z 0406/0506 18008KT 9999 SCT005 SCT020 TN14/0409Z TX21/0417Z PROB40 0406/0411 3000 BR BKN004 BKN010 BECMG 0411/0412 19010KT 6000 SCT008 SCT012 BECMG 0413/0415 9999 SCT030 PROB40 TEMPO 0418/0422 6000 RA SCT010 BKN030 BECMG 0500/0502 SCT010 SCT020 RMK PER =
SBNT 040300Z 0406/0506 17006KT 9999 SCT025 TN21/0407Z TX28/0415Z BECMG 0410/0412 12014KT BECMG 0501/0503 17006KT RMK PEA =
SBOI 041600Z 0418/0506 14008KT 9999 BKN040 TX34/0418Z TN24/0506Z BECMG 0422/0424 09003KT FEW020 RMK PEN =
SBPA 032320Z 0406/0506 16010KT 6000 BKN008 TN13/0409Z TX19/0417Z PROB40 TEMPO 0406/0411 3000 RA BR SCT004 BKN007 BECMG 0411/0413 16008KT 9999 SCT008 BKN012 BECMG 0414/0416 SCT030 BECMG 0500/0502 SCT010 BKN025 RMK PER =
SBPB 040300Z 0406/0506 04016KT 9999 FEW018 TN28/0410Z TX34/0414Z RMK PEA =
SBPJ 041400Z 0418/0506 18005KT CAVOK TX37/0418Z TN23/0505Z PROB40 0418/0524 5000 FU BECMG 0500/0502 13005KT RMK PDE =
SBPK 032320Z 0406/0506 16008KT 9999 BKN030 TN09/0409Z TX19/0417Z PROB40 0406/0412 5000 BR BECMG 0412/0414 SCT040 RMK PER =
SBPL 040300Z 0406/0506 15008KT CAVOK TN22/0408Z TX33/0418Z RMK PEA =
SBPP 032320Z 0406/0506 18008KT 9999 FEW020 TN19/0409Z TX29/0417Z RMK PER =
SBPS 040300Z 0406/0506 29004KT 9999 SCT020 TN20/0409Z TX27/0414Z BECMG 0411/0412 14007KT BECMG 0501/0503 29004KT RMK PEA =
SBPV 040400Z 0406/0506 30005KT 5000 BR FEW020 TN21/0406Z TX34/0417Z BECMG 0407/0409 00000KT BECMG 0411/0413 29005KT CAVOK BECMG 0415/0417 17010KT 8000 TSRA BKN025 FEW030CB BECMG 0419/0421 32002KT 9999 SCT020 RMK PDY =
SBQV 041600Z 0418/0506 12010KT 9999 SCT020 TX26/0418Z TN18/0503Z BECMG 0500/0502 BKN010 RMK PCU =
SBRB 040400Z 0406/0506 33002KT 9999 FEW004 TN20/0409Z TX33/0416Z BECMG 0407/0409 03002KT BECMG 0411/0413 25005KT 9999 FEW020 BECMG 0415/0416 25010KT BECMG 0418/0419 32010KT 8000 TSRA BKN015 FEW025CB BECMG 0421/0423 33005KT 9999 FEW020 BECMG0501/0503 25005KT CAVOK RMK PDY =
SBRF 040300Z 0406/0506 14006KT 9999 SCT023 TN24/0408Z TX28/0415Z RMK PEA =
SBRJ 041500Z 0418/0506 17015KT 7000 BKN015TX23/0418Z TN17/0506ZPROB40 0418/0424 4000 RA BKN012 RMK PGU =
SBRP 040200Z 0406/0506 00000KT CAVOK TN17/0408Z TX35/0418ZPROB30 0410/0412 5000 BR NSCBECMG 0412/0414 04005KTBECMG 0414/0416 25005KT SCT030BECMG 0418/0420 14005KT CAVOKBECMG 0500/0502 00000KT RMK PGL =
SBSC 041500Z 0418/0506 20015KT 7000 BKN015TX23/0418Z TN18/0506ZPROB40 0418/0424 4000 RA BKN012 RMK PGU =
SBSG 040300Z 0406/0506 23004KT 9999 SCT020 TN20/0408Z TX29/0415Z BECMG 0410/0412 16011KT BKN030 BECMG 0417/0419 SCT030 BECMG 0421/0423 23005KT RMK PEA =
SBSJ 040315Z 0406/0506 15005KT 7000 SCT016 TN16/0408Z TX26/0417Z PROB30 0408/0412 3000 BR BKN012 BECMG 0412/0414 10005KT BKN016 BECMG 0416/0418 18010KT PROB30 0418/0424 4000 SHRA BKN012 BECMG 0501/0503 15005KT BECMG 0504/0506 6000 BKN012 RMK PGS =
SBSL 040400Z 0406/0506 05010KT 9999 SCT015 TN26/0406Z TX31/0416Z BECMG 0409/0411 05015KT BECMG 0413/0415 04010KT BKN020 BECMG 0417/0419 SCT020 RMK PDY =
SBSM 041630Z 0418/0506 12008KT 9999 SCT030 TX19/0418Z TN13/0505Z BECMG 0422/0424 CAVOK RMK PDW =
SBSN 040400Z 0406/0506 04005KT CAVOK TN23/0406Z TX33/0415Z BECMG 0410/0412 04010KT 9999 FEW017 BECMG 0417/0419 04005KT BECMG 0421/0423 14005KT CAVOK BECMG 0503/0505 00000KT RMK PDY =
SBSP 040200Z 0406/0506 15005KT 8000 NSC TN15/0409Z TX25/0418ZPROB30 0408/0411 4000 BR OVC007BECMG 0413/0415 9999 BKN025PROB30 0419/0424 19005KT 5000 BR BKN008BECMG 0500/0502 07005KT 7000 NSC RMK PGL =
SBSR 041530Z 0418/0506 23005KT CAVOK TX34/0419Z TN21/0505ZBECMG 0500/0502 00000KTBECMG 0502/0504 11005KT RMK PGD =
SBST 041500Z 0418/0506 20015KT 4000 RA BKN012TX19/0418Z TN16/0506Z RMK PGU =
SBSV 040300Z 0406/0506 17007KT 9999 SCT017 TN24/0409Z TX27/0414Z RMK PEA =
SBTA 041500Z 0418/0506 20010KT 7000 BKN016TX25/0418Z TN16/0506ZPROB40 0418/0424 20015KT 4000 SHRA BKN012 RMK PGU =
SBTB 041600Z 0418/0506 11005KT 9999 SCT020 TX35/0418Z TN22/0506Z BECMG 0422/0424 00000KT CAVOK RMK PEN =
SBTE 041600Z 0418/0506 34006KT 9999 FEW035 TX37/0419Z TN25/0505Z RMK PCU =
SBTF 041600Z 0418/0506 02005KT 9999 SCT020 FEW025TCU TX33/0418Z TN24/0506Z BECMG 0423/0424 00000KT FEW015 RMK PEN =
SBTK 041600Z 0418/0506 32005KT 9999 SCT030 TX34/0419Z TN20/0506Z BECMG 0420/0422 36008KT SCT025 FEW033TCU BECMG 0422/0424 00000KT FEW030 RMK PEN =
SBTT 040400Z 0406/0506 00000KT CAVOK TN20/0406Z TX31/0419Z BECMG 0410/0412 32005KT 9999 FEW015 BECMG 0415/0417 SCT020 FEW025TCU BECMG 0419/0421 33002KT FEW020 BECMG 0423/0501 00000KT CAVOK RMK PDY =
SBTU 041600Z 0418/0506 07005KT 9999 SCT025 TX34/0418Z TN23/0506Z BECMG 0421/0423 00000KT CAVOK RMK PEN =
SBUA 041600Z 0418/0506 26005KT 9999 SCT020 FEW025TCU TX35/0418Z TN23/0506Z PROB30 0419/0423 4000 TSRA SCT020 FEW025CB BECMG 0500/0502 00000KT FEW015 RMK PEN =
SBUF 041600Z 0418/0506 10010KT 9999 SCT022 TX33/0418Z TN25/0505Z RMK PCU =
SBUG 032320Z 0406/0506 19008KT 9999 FEW030 TN11/0409Z TX21/0417Z BECMG 0418/0420 SCT030 RMK PER =
SBUL 041530Z 0418/0506 35005KT CAVOK TX32/0419Z TN20/0505ZBECMG 0502/0504 03005KT RMK PGD =
SBUR 041530Z 0418/0506 03005KT CAVOK TX33/0419Z TN22/0505ZPROB30 0418/0503 25005KT 5000 HZ NSC RMK PGD =
SBVG 041530Z 0418/0506 34005KT CAVOK TX31/0419Z TN20/0505ZBECMG 0421/0422 04005KT RMK PGD =
SBVH 041600Z 0418/0506 12008KT 9999 SCT025 FEW030TCU TX35/0418Z TN20/0506Z PROB30 0419/0422 TS SCT020 FEW025CB BECMG 0422/0424 34003KT CAVOK RMK PEN =
SBVT 040300Z 0406/0506 06009KT 9999 SCT025 TN19/0409Z TX25/0415Z RMK PEA =
SBYS 041530Z 0418/0506 15005KT CAVOK TX32/0419Z TN15/0505ZTEMPO 0418/0421 25005KT SCT030 RMK PGD =
SBZM 041500Z 0418/0506 17010KT 7000 BKN016TX27/0418Z TN17/0506Z RMK PGU =